"lat","lng","place_name","place_type"
33.2495298697668,-117.314879399582,"North Valley","neighborhood"
34.2657218462797,-118.42624162783,"Pacoima","neighborhood"
34.3095081636078,-118.43777900871,"Sylmar","neighborhood"
34.2002074221032,-118.479304072523,"Lake Balboa","neighborhood"
34.1992761567818,-118.469987321475,"Van Nuys","neighborhood"
33.9481221301371,-118.287238106632,"Vermont Vista","neighborhood"
34.1623229092603,-118.262441424974,"Verdugo Viejo","neighborhood"
34.1647372111771,-118.277927076749,"Glenwood","neighborhood"
34.229941196812,-118.370051207408,"Sun Valley","neighborhood"
34.0335009355971,-118.345489318891,"Jefferson Park","neighborhood"
34.0348619589533,-118.278622598023,"University Park","neighborhood"
34.0083388550902,-118.279652664989,"Historic South Central","neighborhood"
38.770733859492,-121.352453171494,"Sun City","neighborhood"
34.1191239789982,-117.213263447575,"Cypress","neighborhood"
34.1249030741415,-117.213112858865,"San Andreas","neighborhood"
32.6941546714331,-117.090176480903,"Lincoln Park","neighborhood"
33.9349139608805,-118.228003643979,"Watts","neighborhood"
34.096153920876,-117.341181327409,"Rancho West","neighborhood"
34.1734598156542,-117.289179195232,"Cajon","neighborhood"
33.1285701474078,-117.084927178746,"Central Escondido","neighborhood"
34.0465563840309,-117.379605295615,"Agua Mansa Industrial Corridor","neighborhood"
34.1347114908254,-118.259515623746,"Pacific - Edison","neighborhood"
34.1354280876626,-118.253350312647,"Mariposa","neighborhood"
34.1295187098056,-118.25257579604,"Adams Hill","neighborhood"
34.112050291554,-117.305792033067,"La Plaza","neighborhood"
34.1330037922551,-118.252211201633,"Tropico","neighborhood"
34.1340545196938,-117.239990761571,"San Gorgonio","neighborhood"
37.3528049325348,-121.851062161274,"Mayfair North","neighborhood"
37.3649895377752,-121.846459792138,"Alexian","neighborhood"
37.3117740798671,-121.858572738288,"Spartan Keyes and Wool Creek","neighborhood"
37.7154350732158,-122.476550393343,"Parkmerced","neighborhood"
33.9556791344459,-117.333417079679,"Canyon Crest","neighborhood"
34.054441043018,-117.197735874996,"Redlands","neighborhood"
34.1754281870722,-117.317359514816,"University","neighborhood"
38.7546017293447,-121.332592588957,"Woodcreek Oaks","neighborhood"
34.2333984889364,-118.465772322481,"North Hills East","neighborhood"
34.0604481849354,-118.271933631062,"Westlake South","neighborhood"
33.7571690944231,-117.879581569553,"Washington Square","neighborhood"
33.75068761555,-117.924572308202,"Riverview West","neighborhood"
38.6365891001927,-121.527966069706,"Gateway West","neighborhood"
33.7579834243142,-117.915906519595,"Santa Anita","neighborhood"
34.1991554341326,-118.411648085536,"Valley Glen","neighborhood"
34.1191371047562,-118.200907423252,"Highland Park","neighborhood"
37.3604544083303,-121.860546276856,"El Ranco Verde","neighborhood"
37.3452835920815,-121.837552121586,"Poco","neighborhood"
34.1506190621308,-118.267197214433,"Vineyard","neighborhood"
37.3262029192012,-121.858771357574,"Little Saigon and Spring Brook","neighborhood"
33.7678062786199,-118.180628865491,"Alamitos Beach","neighborhood"
33.8797239114266,-118.17266036159,"North Long Beach","neighborhood"
33.7917119821322,-118.17450263388,"Poly High","neighborhood"
34.2371714613112,-118.445887841698,"Arleta","neighborhood"
38.7643409299691,-121.303458191032,"Kaseberg - Kingswood","neighborhood"
37.9275654061007,-122.345189954354,"Stege","neighborhood"
34.0054861597443,-118.313022522996,"Leimert Park","neighborhood"
34.1217435247332,-117.304691085388,"Roosevelt","neighborhood"
34.0895728288989,-118.384972162052,"Norma Triangle","neighborhood"
34.0253571875112,-118.337736267295,"Crenshaw","neighborhood"
34.0608374027668,-117.16504325891,"North Redlands","neighborhood"
34.0592418376715,-118.269484354738,"Westlake North","neighborhood"
34.0313932761252,-118.385832954575,"Palms","neighborhood"
34.058512144182,-118.076654090118,"Garvey","neighborhood"
37.7861600809295,-122.413901722972,"Tenderloin","neighborhood"
38.754997392664,-121.271783225439,"Enwood","neighborhood"
34.1413441944437,-117.215104078243,"Amber Hills","neighborhood"
34.1416707366102,-117.195315378861,"Small Canyon","neighborhood"
38.0316070490145,-121.319899616565,"Bear Creek","neighborhood"
38.0021008173266,-121.292814410531,"Valley Oak","neighborhood"
33.7117928947347,-117.995201253865,"Oak View","neighborhood"
34.1321460841107,-117.202165820164,"Crossroads","neighborhood"
37.8018614190559,-122.219160274956,"Glenview","neighborhood"
37.7727036707466,-122.17318614976,"Millsmont","neighborhood"
33.9602620405267,-117.422270265371,"Grand","neighborhood"
33.8195091236311,-116.541250228771,"Downtown Palm Springs","neighborhood"
40.5962703958644,-122.370523302363,"Bluffs","neighborhood"
40.6013805823401,-122.354731442146,"Tanglewood","neighborhood"
40.5893575953195,-122.404802722168,"Lakeview","neighborhood"
37.9273351280848,-122.326693593662,"Park Plaza","neighborhood"
40.6215076322886,-122.396059337349,"Jennifer Manor","neighborhood"
40.6175731625442,-122.369852908335,"Redding Valley View Subdivision","neighborhood"
40.5547105832684,-122.349534187233,"Echo Oaks Subdivision","neighborhood"
40.5474115793941,-122.339575939039,"Alta Mesa","neighborhood"
40.6057132953292,-122.368063848039,"Woodcliff Estates","neighborhood"
40.6152913554985,-122.381733800278,"Northpoint","neighborhood"
40.5889191632702,-122.347712680902,"Mt Shasta Mall","neighborhood"
40.5983376639441,-122.344930518358,"Quail Ridge","neighborhood"
38.0246416603133,-121.357628125847,"Sherwoods Manor","neighborhood"
37.7181798527642,-122.418761343452,"McLaren Park","neighborhood"
33.912229267568,-117.453679385169,"Arlington","neighborhood"
37.7786361846465,-122.431776637653,"Alamo Square","neighborhood"
37.7956764975338,-122.405824920533,"Chinatown","neighborhood"
37.9978830782908,-121.353684302499,"Lincoln Village West","neighborhood"
38.0401518939216,-121.339713174336,"Stonewood","neighborhood"
37.9156358604521,-121.232285237341,"Park","neighborhood"
37.9304153262063,-121.307296667708,"Seaport","neighborhood"
37.7220801395432,-122.148455713079,"Assumption Parish","neighborhood"
35.292326152065,-119.052261293003,"Ridgeview Estates","neighborhood"
35.274220863425,-119.052253128693,"Stone Creek","neighborhood"
38.6105800049398,-121.501497488913,"Natomas Corporate Center","neighborhood"
37.6401439994004,-122.071895368397,"Harder-Tennyson","neighborhood"
37.6297978039591,-122.050926190979,"Mission - Garin","neighborhood"
37.7270843113213,-122.153074136562,"Old San Leandro","neighborhood"
37.8026531788696,-122.262672841798,"Lakeside","neighborhood"
37.8015805808094,-122.250209805819,"Cleveland Heights","neighborhood"
37.8063365147763,-122.273006146637,"Downtown","neighborhood"
37.8703657800329,-122.267566012424,"Downtown Berkeley","neighborhood"
37.8110389980026,-122.271400897118,"Uptown","neighborhood"
37.5354025103249,-121.959225955157,"Irvington","neighborhood"
37.8115856789272,-122.288859996947,"Oak Center","neighborhood"
37.8654453749753,-122.263213752331,"Southside","neighborhood"
38.5398876949493,-121.731016798082,"Interland/Univ. Research Park","neighborhood"
38.5529920314935,-121.722528157266,"Rancho Yolo","neighborhood"
37.5829864266796,-122.329210934714,"North Central","neighborhood"
38.5507751026905,-121.449314148955,"Fairgrounds","neighborhood"
38.4757092165134,-121.42976873553,"Parkway","neighborhood"
38.63789849402,-121.464304932091,"Norwood Tech","neighborhood"
38.6530703612614,-121.462185825268,"Glenwood Meadows","neighborhood"
38.6375681996187,-121.452205492932,"West Del Paso Heights","neighborhood"
38.6273305238321,-121.462557786358,"Strawberry Manor","neighborhood"
38.620974332233,-121.452225140489,"Richardson Village","neighborhood"
38.5104980673634,-121.519028709628,"South Land Park","neighborhood"
38.5600412045006,-121.47486335283,"Newton Booth","neighborhood"
38.6382606078529,-121.433993570242,"Del Paso Heights","neighborhood"
38.6217197371991,-121.405653499747,"Bohemian Village","neighborhood"
38.473433627738,-121.494069706733,"Meadowview","neighborhood"
38.4990541552223,-121.477001694977,"Woodbine","neighborhood"
38.5358942548445,-121.431301292043,"Tahoe Park South","neighborhood"
38.5359818220994,-121.424299352925,"Colonial Manor","neighborhood"
38.6145709287932,-121.491740879179,"South Natomas","neighborhood"
38.6391202225851,-121.37198926368,"Evergreen Estates","neighborhood"
38.5613929002394,-121.482216870122,"Poverty Ridge","neighborhood"
38.5223653312042,-121.430668983958,"Fruitridge Manor","neighborhood"
38.6314464677557,-121.462853547764,"Johnson Heights","neighborhood"
38.6021389333236,-121.463054594616,"Woodlake","neighborhood"
38.6126724760727,-121.449618965477,"Old North Sacramento","neighborhood"
38.5373950788501,-121.467654431203,"South Oak Park","neighborhood"
38.5222827122437,-121.452289452174,"Sandra Heights","neighborhood"
38.5131434856018,-121.452168278907,"Fruitridge Vista","neighborhood"
38.6368160632049,-121.518474439162,"Natomas Crossing","neighborhood"
38.6805311178096,-121.512544156663,"Heritage Park","neighborhood"
38.6821858060361,-121.23260167097,"Woodhaven Heights","neighborhood"
38.6492067890819,-121.524832255352,"RP Sports Complex","neighborhood"
38.4893559044244,-121.411754967865,"Scottsdale","neighborhood"
38.5005165070568,-121.540085832569,"Pocket","neighborhood"
38.5147290053734,-121.443398175086,"Cloverdale Manor","neighborhood"
38.7067319737049,-121.372622983138,"North Country","neighborhood"
38.5108517657978,-121.389994545405,"Florin Fruitridge Industrial Park","neighborhood"
38.7170670527271,-121.361770991249,"Antelope Highlands","neighborhood"
38.4656943250138,-121.422248747169,"Valley Hi / North Laguna","neighborhood"
38.6199191601698,-121.461466121881,"Wills Acres","neighborhood"
38.6314730828276,-121.375646248838,"Gary Gardens","neighborhood"
38.5358769309989,-121.438634518743,"Colonial Heights","neighborhood"
38.5771909221047,-121.484144498126,"Midtown","neighborhood"
38.614757161787,-121.454343969791,"Noralto","neighborhood"
38.6546708075142,-121.32986655715,"Green Tree","neighborhood"
37.4737444453167,-122.224233708098,"Palm Park","neighborhood"
37.6888451926774,-122.463552197475,"Hillside","neighborhood"
38.4880168762477,-121.419471616572,"Fleming Heights","neighborhood"
38.7154174223073,-121.377364123544,"Antelope Heights","neighborhood"
38.6439848516905,-121.451239617465,"Robla","neighborhood"
40.5836754275059,-122.374539497168,"Kutras Riverside Addition","neighborhood"
40.4956858472258,-122.28401703523,"Pacheco","neighborhood"
34.0489410907571,-117.78083649596,"Phillips Ranch","neighborhood"
34.054767071918,-117.974330790348,"Bassett","neighborhood"
34.4229240754752,-119.672980068129,"Eastside","neighborhood"
34.4213647335956,-119.712277840517,"Oak Park","neighborhood"
34.437856074893,-119.729768247766,"Samarkand","neighborhood"
34.4258213638436,-119.728526823525,"Westside","neighborhood"
32.6231471925452,-116.995678302628,"Otay Ranch Village 1","neighborhood"
32.573674494715,-117.082566711513,"Nestor","neighborhood"
33.7873541550346,-118.197227439121,"Washington","neighborhood"
32.7209456625892,-117.157944150247,"Cortez Hill","neighborhood"
32.7162643721685,-117.163656771111,"Core-Columbia","neighborhood"
32.7132218018997,-117.15534427626,"East Village","neighborhood"
32.7149365752271,-117.124629826054,"Stockton","neighborhood"
32.7114598639211,-117.096245937159,"Chollas View","neighborhood"
32.7324371802048,-117.101460776835,"Azalea - Hollywood Park","neighborhood"
32.7468324777057,-117.103578809654,"City Heights","neighborhood"
32.7537656879205,-117.128941699171,"North Park","neighborhood"
32.5554146920848,-117.049659896394,"San Ysidro","neighborhood"
32.80232777473,-117.235495645754,"Pacific Beach","neighborhood"
33.1837507074011,-117.333782270834,"Fire Mountain","neighborhood"
33.0560388503904,-117.282372931681,"Leucadia","neighborhood"
32.6983669432241,-117.157382633404,"Barrio Logan","neighborhood"
32.7446546162093,-117.159073888285,"Marston Hills","neighborhood"
32.762980640535,-117.115852071453,"Normal Heights","neighborhood"
32.7793044375554,-117.145698416362,"Serra Mesa","neighborhood"
32.7513252740309,-117.230995847944,"Point Loma Heights","neighborhood"
33.0343992869575,-116.876354356235,"Ramona","neighborhood"
32.815592660741,-117.178268335957,"Clairemont Mesa East","neighborhood"
32.7079291990925,-117.163275697598,"Embarcadero","neighborhood"
32.7151308199252,-117.130922393915,"Golden Hill","neighborhood"
32.7537114667581,-117.144451795221,"University Heights","neighborhood"
32.6893743749066,-117.11663028335,"Southcrest","neighborhood"
32.7462441494051,-117.204396769536,"Midway District","neighborhood"
33.1483877566863,-117.092582304094,"North Broadway","neighborhood"
34.4060992156679,-118.458887912468,"Canyon Country","neighborhood"
32.7562820190468,-117.062003195885,"Rolando Village","neighborhood"
32.7477217002727,-117.09446062343,"Fairmount Village","neighborhood"
32.68552152762,-117.058983418316,"Paradise Hills","neighborhood"
33.1218588962532,-117.135893280183,"West Ridge","neighborhood"
34.0297171264632,-118.495018610476,"Wilshire Montana","neighborhood"
33.2182954297603,-117.274832615957,"Peacock","neighborhood"
32.7841807339673,-117.2526796734,"Mission Beach","neighborhood"
33.2320802542235,-117.333048551273,"San Luis Rey","neighborhood"
33.2242657236753,-117.30606120059,"Canyon Vista","neighborhood"
33.1848235963733,-117.302631404335,"Mira Costa","neighborhood"
33.192810664603,-117.366131317909,"Townsite","neighborhood"
33.20462717753,-117.369915726242,"East Side Capistrano","neighborhood"
33.1701686417061,-117.362366350721,"South Oceanside","neighborhood"
34.1766563838597,-118.294487609461,"Grandview","neighborhood"
32.7968170078849,-117.192862848871,"Bay Park","neighborhood"
33.833014512941,-117.982552800649,"Northwest Anaheim","neighborhood"
36.7249560904577,-119.822173073297,"Edison","neighborhood"
36.7486519325923,-119.794419638715,"Lowell","neighborhood"
35.430372035298,-119.034468162124,"North Country Meadows","neighborhood"
35.419874638017,-119.064743718464,"Olive Drive area","neighborhood"
35.4454420670858,-119.032731675955,"Highland Knolls","neighborhood"
35.3943233315495,-119.012414348436,"Homaker Park","neighborhood"
35.3957607072869,-118.976578049184,"College Heights","neighborhood"
35.3798760202374,-119.158862296965,"Masterpiece Estates","neighborhood"
35.3459250606908,-118.99861776636,"Casa Loma","neighborhood"
35.3140495481577,-119.007478858467,"Rexland Acres","neighborhood"
35.3572602003262,-118.939434790771,"Oakridge","neighborhood"
35.3496896803071,-119.022440491843,"Benton Park","neighborhood"
35.3079691234577,-119.083928524001,"Silver Creek","neighborhood"
35.2705178536766,-119.013547067756,"Greenfield","neighborhood"
35.3779954374521,-118.941374620673,"Bakersfield Country Club","neighborhood"
35.3584841408486,-119.138308708366,"Villages of Brimhall/Brimhall Classics","neighborhood"
35.3216637155442,-119.064736886653,"Spice Tract","neighborhood"
35.3585613381797,-119.055622213456,"West Park Community","neighborhood"
35.333553756224,-119.067653917015,"Sagepointe","neighborhood"
35.3829939420286,-118.983153354543,"East Bakersfield","neighborhood"
35.6006338205846,-117.696967500184,"Ridgecrest Heights","neighborhood"
35.3580327728328,-119.007244268862,"Oleander/Sunset","neighborhood"
35.335821732883,-119.018210679859,"Southgate","neighborhood"
35.3870314569617,-118.999428150086,"Baker Street","neighborhood"
35.3576650151319,-119.089952430585,"Quailwood","neighborhood"
35.4030131302012,-118.989583644544,"La Cresta/Alta Vista","neighborhood"
35.3959899383052,-119.086834105472,"Fruitvale","neighborhood"
37.2959161032198,-121.846972069228,"Gardens - Villa Montery","neighborhood"
37.2804109961771,-121.834109756772,"Seven Trees and Lairon","neighborhood"
37.3084548646853,-121.92975844392,"Del Mar","neighborhood"
37.3795124271691,-121.855194714296,"Gilchrist","neighborhood"
37.3683092383494,-121.874632441258,"Berryessa Flea Market-BART","neighborhood"
37.2588501281156,-121.801796723332,"Roundtable","neighborhood"
37.3324448228345,-121.870428935252,"Naglee","neighborhood"
37.3301771984443,-121.875267745238,"South University","neighborhood"
37.3280888877035,-121.882491340568,"Downtown and SOFA","neighborhood"
37.2981435349965,-121.947051077157,"Castlemont","neighborhood"
37.2907192558374,-121.844152579639,"Dahl","neighborhood"
37.3228116828598,-121.876011382169,"Virginia and Martha","neighborhood"
37.3083669378908,-121.878573056235,"Alma","neighborhood"
37.3058104501582,-121.847989876541,"Brenning","neighborhood"
37.3138525625935,-121.927073625171,"Rose Glen","neighborhood"
37.3611635768454,-121.844128157575,"Luz","neighborhood"
37.2945729464208,-121.839086591423,"Hillsdale","neighborhood"
34.1587496449079,-119.222991828145,"Hollywood","neighborhood"
34.1964931824057,-119.191379548338,"Hobson Park West","neighborhood"
34.1912009798211,-119.18526279749,"Hobson Park East","neighborhood"
34.1843912441925,-119.18512141162,"Kamala Park","neighborhood"
34.2313709894279,-119.168074595302,"El Rio East","neighborhood"
34.1826232200378,-119.174761796541,"Cal-Gisler","neighborhood"
34.1493779720272,-119.185199526943,"South Winds","neighborhood"
34.2119077313525,-119.186498419393,"Carriage Square","neighborhood"
37.9628032296715,-122.03849695103,"Monument Corridor","neighborhood"
37.8758297109782,-122.076382734185,"Rossmoor","neighborhood"
33.8124209995827,-117.937063797996,"Hermosa Village","neighborhood"
33.6550624411628,-117.930050591271,"Westside Costa Mesa","neighborhood"
38.5859686611443,-121.484934424875,"Mansion Flats","neighborhood"
34.045661533619,-118.297001745524,"Pico Union","neighborhood"
34.0094998129829,-117.474512449358,"Glen Avon","neighborhood"
38.6394175694302,-121.39395244414,"Del Paso Park","neighborhood"
37.9470794253936,-122.353823898995,"Belding Woods","neighborhood"
33.1972846025178,-117.363263288918,"Loma Alta","neighborhood"
34.0350002481042,-118.303027478583,"West Adams","neighborhood"
39.7287051549238,-121.817154758124,"Chapmantown","neighborhood"
33.2180455856166,-117.328183539047,"Oceana","neighborhood"
33.948485317562,-118.314112163138,"Gramercy Park","neighborhood"
33.9660405116275,-118.289339770524,"South Figueroa Corridor","neighborhood"
34.0014202705849,-118.254308985018,"Central Alameda","neighborhood"
34.1527012967031,-119.170526979629,"Cypress Gardens","neighborhood"
36.7603058149371,-119.799350135584,"Tower District","neighborhood"
38.6580324754556,-121.368647131538,"Landmarks","neighborhood"
33.9979207963751,-118.267483254373,"South Park","neighborhood"
34.0086522918207,-118.290777220008,"Vermont Harbor","neighborhood"
38.8868793455671,-121.297875700143,"Downtown Lincoln","neighborhood"
33.9926056439561,-118.320098745255,"Park Mesa Heights","neighborhood"
36.7796873756833,-119.716675590643,"McLane","neighborhood"
33.9931731724314,-117.514627101774,"Mira Loma","neighborhood"
34.1042062688217,-117.344935014003,"Terrace","neighborhood"
37.9721760296145,-122.337816882607,"Fairmede - Hilltop","neighborhood"
33.9805683447012,-118.289320578565,"Vermont-Slauson","neighborhood"
33.9409317935453,-117.479405443499,"La Sierra Acres","neighborhood"
38.6143173666337,-121.471120718545,"Gardenland","neighborhood"
34.1493738227761,-117.299327274988,"Shandin Hills","neighborhood"
34.0768998889451,-117.291263575532,"Show Place","neighborhood"
38.7434603754795,-121.286871293673,"Cherry Glen","neighborhood"
33.9159334066099,-117.481874770912,"La Sierra","neighborhood"
33.9200625267971,-118.289296159565,"Harbor Gateway North","neighborhood"
38.7337431301876,-121.276400432468,"Cirby Side","neighborhood"
38.7488667718216,-121.273871666362,"Folsom Road","neighborhood"
38.2467559176558,-121.297579719555,"Southdale Terrace","neighborhood"
38.7343792537201,-121.298003887634,"Theiles Manor","neighborhood"
33.9351387089108,-117.45700231873,"Arlanza","neighborhood"
34.0321621935482,-118.406428181068,"Cheviot Hills","neighborhood"
33.7450967456688,-118.284149559571,"Central San Pedro","neighborhood"
38.7552504584385,-121.282958960405,"Sierra Vista","neighborhood"
33.7504468158075,-118.294284589154,"Northwest San Pedro","neighborhood"
36.7483671817662,-119.824356558314,"West Side","neighborhood"
37.8151775029814,-122.260954119607,"Oakland Ave - Harrison St","neighborhood"
37.8221957844417,-122.257005338408,"Piedmont Avenue","neighborhood"
34.0033430483539,-118.429046393215,"Mar Vista","neighborhood"
33.9974874812465,-118.474187658524,"Oakwood","neighborhood"
34.2276111843416,-118.250872648406,"Crescenta Highlands","neighborhood"
37.7926057444894,-122.239000697551,"Rancho San Antonio","neighborhood"
37.7829085718803,-122.225140877912,"Hawthorne","neighborhood"
38.5638723080378,-121.75519402899,"Covell Park","neighborhood"
38.5483120067114,-121.736547760744,"Old East Davis","neighborhood"
38.5493679878171,-121.730641948081,"Davis Manor","neighborhood"
32.7652618243986,-117.064554977838,"College East","neighborhood"
32.7173782720608,-117.079831710287,"Emerald Hills","neighborhood"
32.7002799018072,-117.078953168613,"Valencia Park","neighborhood"
34.2555510014568,-118.477804881997,"North Hills West","neighborhood"
34.1702866859843,-118.402719779409,"Valley Village","neighborhood"
34.0735239415613,-118.289657718716,"Rampart Village","neighborhood"
40.5650471809785,-122.366833333594,"Bechelli","neighborhood"
40.5504284334901,-122.364427653895,"Greens Way Terrace","neighborhood"
34.2314169506886,-118.595276225075,"Canoga Park","neighborhood"
32.6984315648219,-117.030004439924,"Bay Terraces","neighborhood"
34.1703571995725,-119.175258800135,"Blackstock North","neighborhood"
36.0717645532582,-119.077822390968,"West Porterville","neighborhood"
32.7223676150601,-117.059810478336,"Encanto","neighborhood"
34.1624150289362,-118.368074387016,"NoHo Arts District","neighborhood"
32.7004754019729,-117.020363415058,"Skyline","neighborhood"
32.7458952920555,-117.088289047064,"Chollas Creek","neighborhood"
32.7425233983641,-117.090708547507,"Islenair","neighborhood"
37.712598285906,-122.421072450684,"Sunnydale","neighborhood"
32.7581437165411,-117.083917243623,"Talmadge","neighborhood"
32.7662877325504,-117.081880774615,"El Cerrito","neighborhood"
32.57090316599,-117.04665983107,"Otay Mesa West","neighborhood"
32.7489880858972,-117.06721064141,"Redwood Village","neighborhood"
38.6064678521179,-121.350666971183,"Walnut Terrace","neighborhood"
38.6048324037049,-121.488233836923,"American River Parkway","neighborhood"
38.5766265795081,-121.332041849839,"Larchmont Riviera East","neighborhood"
38.6138541904859,-121.359893530867,"Hazelwood","neighborhood"
32.7912409633111,-117.172287558529,"Linda Vista","neighborhood"
34.406155995359,-118.477131033481,"Newhall","neighborhood"
32.8046995706281,-117.152951856985,"Birdland","neighborhood"
40.5824185629679,-122.345246764273,"Woodside Meadows","neighborhood"
34.3908859268975,-118.564963167915,"Valencia","neighborhood"
34.1030135969315,-118.187001768356,"Hermon","neighborhood"
34.1213315376422,-118.24238902575,"Glassell Park","neighborhood"
40.4276942835547,-122.243917084928,"Cascade","neighborhood"
40.5674241047207,-122.341078415234,"Country Club Subdivision","neighborhood"
40.6296591758647,-122.414940715114,"Buckeye","neighborhood"
40.5832924641593,-122.402803797107,"Magnolia","neighborhood"
40.6411212641775,-122.381726240645,"Oasis","neighborhood"
40.5721500861257,-122.405109295828,"Benton","neighborhood"
40.5787496433084,-122.382015175063,"Garden Tract","neighborhood"
40.5706045700396,-122.383464707675,"Parkview","neighborhood"
32.7869619866688,-117.106344453281,"Grantville","neighborhood"
40.5395553384881,-122.369170044609,"Moline Subdivision","neighborhood"
40.5744763148623,-122.396780427606,"Greenwood Heights Subdivision","neighborhood"
32.9042551273736,-117.121048615394,"Mira Mesa","neighborhood"
32.7253033724153,-117.161074588755,"Bankers Hill","neighborhood"
32.7525436062625,-117.111339419836,"Corridor","neighborhood"
32.6968662445016,-117.129002621782,"Memorial","neighborhood"
32.7523137101821,-117.101994522502,"Teralta West","neighborhood"
35.2853452767244,-120.658994507109,"Mill Street Historic District","neighborhood"
35.2786096842654,-120.666452299231,"Downtown Historic District","neighborhood"
35.2797630175725,-120.65608806171,"Old Town Historic District","neighborhood"
32.8054623079781,-117.020977929718,"Lake Murray","neighborhood"
33.1065661937326,-117.102982710956,"Felicita","neighborhood"
32.7548552916133,-117.087920336475,"Colina Del Sol","neighborhood"
34.0980576250395,-118.23042566407,"Cypress Park","neighborhood"
34.1512353305207,-118.228629952917,"Woodbury","neighborhood"
32.8362826318094,-117.19960924249,"North Clairemont","neighborhood"
33.1381886108272,-117.057284648149,"Midway","neighborhood"
38.9437071118975,-119.981702670355,"Al Tahoe","neighborhood"
34.1489252648984,-118.139197337672,"Playhouse Village","neighborhood"
34.1560347096286,-118.128996084811,"Catalina Villas","neighborhood"
33.8761397085795,-118.205773415525,"College Square","neighborhood"
33.8759052559585,-118.199799955215,"Freeway Circle","neighborhood"
32.719696686872,-117.089204449764,"Ridgeview/Webster","neighborhood"
38.4783820374886,-121.383485185896,"South Woods","neighborhood"
32.7522747862347,-117.096550288996,"Teralta East","neighborhood"
32.6882220609763,-117.105229897976,"Shelltown","neighborhood"
32.7094935412948,-117.14029650094,"Sherman Heights","neighborhood"
37.9287424154745,-122.365745734015,"Santa Fe","neighborhood"
32.7325677220786,-117.098801418566,"Swan Canyon","neighborhood"
34.1035822519596,-118.298364959347,"Los Feliz","neighborhood"
33.8139740284164,-118.188529995356,"Memorial Heights","neighborhood"
33.9961720405856,-117.411252204005,"Rubidoux","neighborhood"
32.5798210267663,-117.101220021581,"Egger Highlands","neighborhood"
33.8616287890064,-118.351054771504,"Northwest Torrance","neighborhood"
33.7615713203512,-118.083180397155,"Leisure World","neighborhood"
32.5784869558503,-117.079236428308,"Palm City","neighborhood"
34.1434887749723,-117.3113256234,"Muscupiabe","neighborhood"
34.2250938131567,-119.189172664458,"Sierra Linda","neighborhood"
38.575712019402,-121.300840339594,"Cordova Towne","neighborhood"
38.5611534295233,-121.374295099636,"Glenbrook East","neighborhood"
38.5444858901309,-121.353557208591,"Westporter","neighborhood"
33.8411734326984,-117.917685217401,"Downtown Anaheim","neighborhood"
37.8241122721335,-122.273102834745,"Hoover - Foster","neighborhood"
37.8252391622681,-122.280240106558,"Clawson","neighborhood"
37.8184335530499,-122.281680404039,"McClymonds","neighborhood"
37.7546033815364,-122.175813706575,"Webster","neighborhood"
37.7203414124482,-122.400785832555,"Portola","neighborhood"
37.7128248843931,-122.404948231513,"Visitacion Valley","neighborhood"
37.9905918238981,-121.308761018397,"Pacific","neighborhood"
34.1323673499576,-117.326854620049,"Shirrells","neighborhood"
34.0537175129801,-118.285987219522,"MacArthur Park","neighborhood"
33.7735295230164,-118.174173245585,"North Alamitos Beach","neighborhood"
34.0929850251395,-118.302559436338,"Little Armenia","neighborhood"
37.736951892025,-122.402224653107,"Silver Terrace","neighborhood"
33.7220187347996,-118.299031431055,"Coastal San Pedro","neighborhood"
34.1453720268795,-118.244711059926,"Citrus Grove","neighborhood"
33.8514460629611,-118.189082037985,"Addams","neighborhood"
37.7634132617103,-122.178037833584,"Arroyo Viejo","neighborhood"
38.6385402979166,-121.318717811234,"Lincoln Terrace","neighborhood"
37.6689496394756,-122.107736571282,"Hayward Acres","neighborhood"
37.7152136506126,-122.43672382848,"Excelsior","neighborhood"
34.1391817469961,-117.287416077723,"Wilson","neighborhood"
33.7771592104376,-118.199992148153,"Willmore","neighborhood"
37.7494592724083,-122.455424516638,"Forest Hill Extension","neighborhood"
34.063540595929,-118.305365141511,"Koreatown","neighborhood"
37.7329086766502,-122.477595827036,"Merced Manor","neighborhood"
37.7263851154019,-122.479827941133,"Stonestown","neighborhood"
37.7982063810862,-122.404241773291,"North Beach","neighborhood"
37.795680276685,-122.410147666988,"Nob Hill","neighborhood"
37.7149200596864,-122.389358920159,"Candlestick Point SRA","neighborhood"
37.8134176219699,-122.281963944693,"Ralph Bunche","neighborhood"
37.8033406847468,-122.285664247497,"Acorn","neighborhood"
37.7483222076023,-122.163780153091,"Cox","neighborhood"
37.9769400300953,-121.254718483685,"August","neighborhood"
34.0895917445953,-117.867867473803,"Charter Oak","neighborhood"
33.9926101040158,-118.084847409418,"El Rancho","neighborhood"
34.0805894654507,-118.283168397829,"Silver Lake","neighborhood"
35.3804090806872,-119.117029693849,"Greenacres","neighborhood"
34.1199691571862,-117.275717869893,"East Valley","neighborhood"
35.348587453715,-119.067289578935,"Kern City","neighborhood"
37.6494229263682,-122.088781026178,"Jackson Triangle","neighborhood"
37.6578873590589,-122.104809840028,"Longwood - Winton Grove","neighborhood"
33.8143169955275,-117.909309510524,"Anaheim Resort","neighborhood"
33.8258163108419,-117.906674377893,"Southeast Anaheim","neighborhood"
37.7848577524564,-122.204050497853,"Allendale","neighborhood"
37.7578379333411,-122.419008422584,"Mission District","neighborhood"
37.7832081708379,-122.418366155963,"Little Saigon","neighborhood"
37.7089010666692,-122.448980608475,"Crocker-Amazon","neighborhood"
37.7207232652802,-122.496406206246,"Lakeshore","neighborhood"
37.780087055584,-122.41537397208,"Civic Center","neighborhood"
37.7752715258303,-122.415494143873,"SoMa","neighborhood"
37.8189556763892,-122.368014745198,"Treasure Island","neighborhood"
37.7822824886116,-122.408143815512,"Mid-Market","neighborhood"
35.3771846675138,-119.028392615366,"Riviera/Westchester","neighborhood"
37.7529400782529,-122.398166906068,"Potrero Hill","neighborhood"
37.7883303414451,-122.419458707865,"Lower Nob Hill","neighborhood"
37.7805001271915,-122.432159352805,"Western Addition","neighborhood"
37.7804074390211,-122.425387193725,"Cathedral Hill","neighborhood"
37.7848222688725,-122.409426937673,"Union Square","neighborhood"
38.6887346911639,-121.339338209503,"Larchmont Foothills","neighborhood"
38.5995243715777,-121.387616125506,"Arden Glen","neighborhood"
41.766195877535,-124.208209009585,"Crescent City North","neighborhood"
38.7010624512607,-121.360204382624,"Kirkland Place","neighborhood"
38.6964714150122,-121.359380158612,"Pepperwood","neighborhood"
34.4380079066698,-119.70873052868,"Lower Riviera","neighborhood"
34.4255481390638,-119.704032732023,"Santa Barbara Downtown","neighborhood"
38.6487472627124,-121.351336970291,"College Oak Estates","neighborhood"
37.7852322286087,-122.218799179322,"Peralta Hacienda","neighborhood"
38.7143357458008,-121.298385734071,"Grand Oaks","neighborhood"
35.3507108224947,-118.986884171368,"Cottonwood","neighborhood"
38.6716284200701,-121.302939668676,"Pioneer Oaks","neighborhood"
38.7043155116767,-121.277076619298,"El Nido Heights","neighborhood"
38.6798523621979,-121.314844844023,"Greenback Estates","neighborhood"
36.7468599032602,-119.784322907892,"Jefferson","neighborhood"
37.4477569181463,-122.161797946755,"Downtown North","neighborhood"
38.694091317402,-121.317515146111,"Twin Creeks","neighborhood"
38.6746073361069,-121.321146373215,"Shadow Creek North","neighborhood"
35.3215657373355,-119.114015350001,"Tevis Ranch","neighborhood"
38.2437023391216,-121.307816566174,"The Vineyards","neighborhood"
34.4230795438287,-119.694053033439,"Laguna","neighborhood"
34.0875249180691,-117.302924779854,"Valley College","neighborhood"
37.6524537803661,-122.454852962903,"Serramonte","neighborhood"
38.5625500595849,-121.37434578459,"Glenbrook Garden Homes","neighborhood"
38.562589093279,-121.365871162431,"Larchmont Riviera","neighborhood"
34.1701205672854,-118.296310636219,"Grand Central","neighborhood"
34.163020625941,-118.302069996877,"Riverside Rancho","neighborhood"
34.1577771166663,-118.259671969253,"Fremont Park","neighborhood"
34.1476135739972,-117.313115412367,"Blair Park","neighborhood"
32.7342216461847,-117.174258523639,"Middletown","neighborhood"
32.8760765834401,-117.222231369683,"University City","neighborhood"
32.7426113009919,-117.149012167161,"Hillcrest","neighborhood"
32.7849388593933,-117.166044274153,"West Dunlop Street","neighborhood"
37.2531832233994,-121.867285411493,"Foxchase and Oakridge","neighborhood"
34.4037551258432,-119.70198551201,"West Beach","neighborhood"
34.2284427522705,-118.448084223746,"Panorama City","neighborhood"
34.1547942038464,-118.372642890713,"West Toluca Lake","neighborhood"
33.7938543375528,-118.345325467221,"Country Hills","neighborhood"
34.1974502983889,-118.546541153076,"Reseda","neighborhood"
36.5513481123359,-121.926993250874,"Golden Rectangle","neighborhood"
34.0968932829762,-118.289376738263,"East Hollywood","neighborhood"
33.7034713649455,-118.283054383711,"San Pedro","neighborhood"
33.1585287947782,-117.26548161968,"Ocean Hills","neighborhood"
33.1794998600407,-117.277037687344,"Lake","neighborhood"
34.0635772780084,-118.348283304217,"Miracle Mile","neighborhood"
33.9664344999904,-117.381162724023,"Wood Streets","neighborhood"
33.9568280709105,-117.44518948022,"Riverside Airport","neighborhood"
33.9515943383804,-117.413969904915,"Magnolia Center","neighborhood"
38.5490798732658,-121.743203051738,"Old North Davis","neighborhood"
33.8364712219301,-118.178462557611,"Bixby Knolls","neighborhood"
33.7807856666385,-118.159488342539,"Zaferia","neighborhood"
33.9462269458124,-117.385204522649,"Victoria","neighborhood"
33.9345898593501,-117.398403153021,"Casa Blanca","neighborhood"
33.7907656150475,-118.196487133139,"South Wrigley","neighborhood"
33.7877728735373,-118.136645990291,"Traffic Circle Area","neighborhood"
33.777156328699,-118.159528066482,"Rose Park","neighborhood"
37.6365055924749,-121.003614162996,"Downtown Modesto","neighborhood"
33.911409055795,-117.44139067773,"Arlington South","neighborhood"
34.075708359287,-118.209091129197,"Lincoln Heights","neighborhood"
33.8662012537239,-117.865086903171,"Northeast Anaheim","neighborhood"
33.75736152126,-117.86082783831,"Logan","neighborhood"
33.6705879884636,-117.830905887961,"Rancho San Joaquin","neighborhood"
33.7214771749884,-117.860408856026,"Delhi","neighborhood"
33.748238323242,-117.858036383201,"Lacy","neighborhood"
33.7533871260488,-117.86088386521,"French Park","neighborhood"
33.7250172948817,-117.859758589266,"Madison Park","neighborhood"
33.7414110314964,-117.868689277329,"Heninger Park","neighborhood"
33.9225764180152,-117.965324099369,"Los Nietos","neighborhood"
40.5668848619766,-122.319191348357,"Country Squire Estates Subdivision","neighborhood"
33.7001902156969,-117.901071321902,"South Coast Metro","neighborhood"
37.5771347938456,-122.055648765448,"Ardenwood","neighborhood"
33.6546945703736,-117.841185681788,"University Town Center","neighborhood"
37.7990861160252,-122.255556601392,"Merritt","neighborhood"
37.9529077766515,-122.367286514093,"Shields-Reid","neighborhood"
37.7979986913786,-122.248045953841,"Ivy Hill","neighborhood"
37.7886602307271,-122.218695056017,"Patten","neighborhood"
38.4336179936665,-122.709231082116,"Burbank Gardens Neighborhood Association","neighborhood"
37.7911990805337,-122.207882545444,"Bartlett","neighborhood"
37.7921922559312,-122.211104202937,"Upper Peralta Creek","neighborhood"
37.7938072711416,-122.204261774542,"Lower Dimond","neighborhood"
37.7821616106607,-122.215896939921,"Harrington","neighborhood"
33.7435975812483,-117.878620804047,"Pico-Lowell","neighborhood"
33.7444432844531,-117.863015856355,"Pacific Park","neighborhood"
33.7600021175349,-117.869931780903,"Willard","neighborhood"
33.7602361261391,-117.865531535504,"Santa Ana Triangle","neighborhood"
33.7557126500964,-117.865934547223,"French Court","neighborhood"
34.1656414110622,-119.149028521264,"College Park","neighborhood"
37.7503916594069,-122.178295356011,"Highland","neighborhood"
37.7782336084756,-122.289680671112,"West Alameda","neighborhood"
37.7242144234266,-122.167901850421,"Davis Tract","neighborhood"
37.7089539036751,-122.140439825713,"Lower Bal","neighborhood"
37.690348538205,-122.13376930611,"Floresta Gardens - Bradrick","neighborhood"
34.1707906590597,-119.16374846947,"College Estates","neighborhood"
37.6206563431262,-122.094292062113,"Glen Eden","neighborhood"
38.4519297544746,-122.713455955944,"Jr College Neighborhood Association","neighborhood"
38.4269604207512,-122.726742218254,"Southwest Santa Rosa","neighborhood"
34.0881976622823,-118.306976072505,"Melrose Hill","neighborhood"
38.4354712444895,-122.73357730527,"Roseland","neighborhood"
34.1834869303842,-119.198914568513,"Marina West","neighborhood"
33.9840436750215,-117.368855343799,"Downtown Riverside","neighborhood"
38.475321983819,-122.665192776248,"Middle Rincon Homeowners Association","neighborhood"
34.2046003690448,-119.164032263732,"La Colonia","neighborhood"
32.7479104436082,-117.242211019426,"Ocean Beach","neighborhood"
34.0972280745006,-118.181820411562,"Monterey Hills","neighborhood"
34.0525876455004,-118.333831571674,"Mid-Wilshire","neighborhood"
34.0723860412287,-118.263712373564,"Echo Park","neighborhood"
34.0743735227602,-118.276094087841,"Historic Filipinotown","neighborhood"
33.7799108831608,-118.126616267762,"Park Estates","neighborhood"
33.7882632128247,-118.165624740352,"Whittier","neighborhood"
38.6575079065716,-121.378100423986,"Mcclellan Gardens","neighborhood"
33.8716761620296,-118.15344444412,"Ramona Park","neighborhood"
33.8600605183999,-118.1941255244,"De Forest","neighborhood"
33.8435157237743,-118.188513903511,"Bixby North","neighborhood"
33.8498763784348,-118.181394903111,"Carmelitos","neighborhood"
33.8526665804189,-118.201404705245,"Sutter","neighborhood"
33.813613148036,-118.218160819389,"Upper Westside","neighborhood"
37.4734359554345,-122.157301341408,"Belle Haven","neighborhood"
34.0858813915802,-118.210160605024,"Montecito Heights","neighborhood"
33.8703397082922,-118.196274466739,"Coolidge Triangle","neighborhood"
33.8634510875059,-118.171606369866,"Harte","neighborhood"
33.8531218959411,-118.18058710655,"Lindbergh","neighborhood"
33.8569505356733,-118.161893583756,"Davenport Park","neighborhood"
33.8631959940257,-116.552503499381,"Desert Highland Gateway Estates","neighborhood"
37.7949645442152,-122.25129481122,"East Lake","neighborhood"
37.7941340092087,-122.215459770507,"School","neighborhood"
37.4800498181966,-122.221760248355,"Staumbaugh Heller","neighborhood"
33.7807902395778,-118.178517338568,"Lincoln","neighborhood"
33.7771572372641,-118.178518636433,"Hellman Street","neighborhood"
33.7771593493913,-118.193724992543,"North Pine","neighborhood"
33.7706233281375,-118.201633820653,"West Gateway","neighborhood"
33.7713794336177,-118.166421871904,"4th Street Corridor","neighborhood"
33.7620683751924,-118.133779154372,"Belmont Shore","neighborhood"
33.7807912869746,-118.162768697034,"Cambodia Town","neighborhood"
37.4723899459061,-122.213351924098,"South Fair Oaks","neighborhood"
34.0235308067904,-118.357962705756,"Baldwin Hills","neighborhood"
38.5281615965607,-121.447690089549,"Lawrence Park","neighborhood"
38.6362157076327,-121.375659910755,"Annadale Estates","neighborhood"
38.6573086636504,-121.352862218802,"Amber Park","neighborhood"
38.5880435563948,-121.300454568646,"Mills Park Terrace","neighborhood"
34.011261736337,-118.344348065402,"Baldwin Village","neighborhood"
35.134697322789,-120.622604435506,"Pismo Marsh","neighborhood"
32.6557688559297,-116.975867286188,"Eastlake","neighborhood"
34.0667367169688,-118.258009310583,"Westlake","neighborhood"
33.834123700058,-118.133278093991,"Lakewood Village","neighborhood"
34.0734918874209,-118.388970876625,"Beverly Grove","neighborhood"
34.0455897570165,-118.252176735155,"Historic Core","neighborhood"
34.048972703091,-118.243027699324,"Little Tokyo","neighborhood"
33.9722801951557,-118.372853517508,"Westchester","neighborhood"
33.82459113421,-118.304602227,"Harbor Gateway South","neighborhood"
33.8638687078686,-118.181342850148,"Jordan","neighborhood"
33.8709898680952,-118.175654805349,"Grant","neighborhood"
34.1863479331622,-118.599395080653,"Warner Center","neighborhood"
34.0401513791696,-118.241593022779,"Skid Row","neighborhood"
34.0568971673211,-118.253953127899,"Bunker Hill","neighborhood"
34.0460469844185,-118.244976832662,"Toy District","neighborhood"
34.2103413591591,-118.228032115932,"Montrose","neighborhood"
34.2145813647312,-118.2400733229,"Montrose Verdugo City","neighborhood"
33.7865169321925,-118.214975435617,"Lower West Side","neighborhood"
34.0977677675822,-118.356992910299,"Spaulding Square","neighborhood"
34.0554763306075,-118.260006530588,"City West","neighborhood"
34.2605341768112,-118.528292922795,"Porter Ranch","neighborhood"
33.8394595678285,-118.346996084149,"Delthorne","neighborhood"
34.0238775608387,-118.471364390282,"Pico","neighborhood"
34.0273442881741,-118.41220774069,"Westside Village","neighborhood"
34.0156896479799,-118.453290107542,"Sunset Park","neighborhood"
34.2545024692254,-118.295480534063,"Tujunga","neighborhood"
34.2536157161876,-118.589664549976,"Chatsworth","neighborhood"
33.9981100668109,-118.430363349221,"Culver - West","neighborhood"
34.2632324401797,-118.496877300665,"Granada Hills South","neighborhood"
32.7687506315373,-117.185706980126,"Morena","neighborhood"
34.0043284163083,-118.33756579162,"View Park","neighborhood"
34.0346744552,-118.289155130662,"El Salvador Community Corridor","neighborhood"
33.9927738717585,-118.359466849126,"Windsor Hills","neighborhood"
34.2006860703356,-118.230848609858,"Sparr Heights","neighborhood"
38.6165702883269,-121.425612033535,"Ben Ali","neighborhood"
38.6305885579086,-121.424001252486,"Hagginwood","neighborhood"
38.6475885294807,-121.424237369076,"Raley Industrial Park","neighborhood"
38.6354534925605,-121.414626969754,"East Del Paso Heights","neighborhood"
38.6257299573506,-121.439139864748,"South Hagginwood","neighborhood"
38.6828408614276,-121.376763467131,"Mcclellan Meadows","neighborhood"
32.6899206406943,-117.099231446721,"Mountain View","neighborhood"
32.7099174688852,-117.103987523593,"Mount Hope","neighborhood"
38.5843202555126,-121.492481308846,"Alkali Flat","neighborhood"
38.5178439560052,-121.525793791987,"Greenhaven","neighborhood"
38.6899477093482,-121.453025838536,"Rio Linda Town","neighborhood"
38.5531358865307,-121.467819638883,"North Oak Park","neighborhood"
38.5278451505481,-121.453716404942,"Fruitridge Oaks","neighborhood"
38.5641951876642,-121.493447971238,"Richmond Grove","neighborhood"
38.5700484435477,-121.498451060715,"Southside Park","neighborhood"
38.560852162402,-121.504576780379,"Upper Land Park","neighborhood"
38.5204920590982,-121.458560697192,"Daystar","neighborhood"
38.5201119368762,-121.463231471531,"Mascot Gardens","neighborhood"
38.5490051718456,-121.472692733726,"Central Oak Park","neighborhood"
38.5066152117879,-121.419421641316,"Southeast Village","neighborhood"
38.5070897354234,-121.412764482565,"Glen Elder","neighborhood"
38.4991573008318,-121.42389520029,"Lindale","neighborhood"
38.4925853062011,-121.45089460633,"Parkway Estates","neighborhood"
38.5430827256797,-121.435658807627,"Tahoe Park","neighborhood"
38.5291035803672,-121.412021499123,"Colonial Village","neighborhood"
38.4928976819989,-121.433206054967,"Florinwood Condo","neighborhood"
38.4847883015396,-121.429950457328,"Delta Pointe","neighborhood"
38.5576371743273,-121.415063223416,"College Town","neighborhood"
38.5597863070669,-121.422917438781,"CSUS","neighborhood"
38.5867439903637,-121.429467035777,"Cal Expo","neighborhood"
38.5971252475768,-121.437821003738,"Point West","neighborhood"
38.6652123652891,-121.36015334733,"Hill View Farms","neighborhood"
38.6063591221146,-121.433526739827,"Erickson Industrial Park","neighborhood"
38.5360077882378,-121.478710054623,"North City Farms","neighborhood"
38.2590695175357,-121.299446537788,"Wendy Hope Estates","neighborhood"
38.5101043400573,-121.49379920737,"Airport","neighborhood"
37.9874694231131,-122.323792879327,"Hilltop Bayview","neighborhood"
33.7065256852641,-117.242616007923,"Quail Valley","neighborhood"
33.6500150264843,-117.292290664009,"Sedco Hills","neighborhood"
33.9190049687761,-117.412824101828,"Arlington Heights","neighborhood"
34.2614974129597,-118.30921993392,"Sunland","neighborhood"
32.707751960764,-117.131880515563,"Grant Hill","neighborhood"
37.7105635257672,-122.134715877296,"Upper Bal","neighborhood"
32.8326461038921,-117.281170791989,"Beach Barber Tract","neighborhood"
34.141366158278,-118.236801942163,"Somerset","neighborhood"
33.6679073147508,-117.84995367295,"Irvine Business Complex","neighborhood"
34.0892974467128,-118.235142416482,"Elysian Valley","neighborhood"
34.0569354133418,-118.314494532185,"Wilshire Park","neighborhood"
34.13314654221,-118.267933103644,"Atwater Village","neighborhood"
37.7926894279753,-122.24702371586,"Clinton","neighborhood"
32.7027553308743,-117.135230570379,"Logan Heights","neighborhood"
33.6768340586924,-117.898988243093,"Mesa Del Mar","neighborhood"
40.5556873431186,-124.130537201741,"Rohnerville","neighborhood"
33.146778148061,-117.116284788026,"Country Club","neighborhood"
34.1120767330365,-117.284251712647,"Seccombe Lane","neighborhood"
34.1036919664435,-117.370399505386,"Downtown Rialto","neighborhood"
34.1240741981402,-117.274236859113,"Perris Hills","neighborhood"
34.1473856239818,-117.278680543662,"Nena","neighborhood"
34.1475683715024,-117.28958766378,"Arrowhead","neighborhood"
34.1391947761089,-117.291923246188,"Arrowview","neighborhood"
34.1339843660583,-117.295969809256,"SBHS","neighborhood"
33.6882359181952,-117.773726306201,"El Camino Real","neighborhood"
34.1052306728618,-117.281448006924,"Carousel","neighborhood"
34.1129828363163,-117.252367546697,"Curtis","neighborhood"
33.707267294732,-117.881847517662,"South Coast","neighborhood"
33.7252676498492,-117.889555655866,"Shadow Run","neighborhood"
34.1443543726375,-117.267609460412,"Del Rosa","neighborhood"
34.1385890130676,-117.256783849885,"NE - Sterling","neighborhood"
33.7468368444137,-117.848827519466,"Saddleback View","neighborhood"
33.7374258133629,-117.843795121676,"Lyon Street","neighborhood"
33.7356860819183,-117.855304062725,"Cornerstone Village","neighborhood"
33.7471285308896,-117.889121410003,"Artesia Pilar","neighborhood"
33.8195632083531,-117.961118654081,"Sherwood Forest & Thistle Development","neighborhood"
38.5787402027336,-121.471573503729,"Marshall School","neighborhood"
38.6302966447471,-121.387292408675,"Country Club Estates","neighborhood"
32.7493020457372,-117.058655500879,"Rolando Park","neighborhood"
38.6762033502511,-121.165733538271,"Perazzo","neighborhood"
38.4974964393157,-121.486915693784,"Golf Course Terrace","neighborhood"
37.9457815952386,-122.534212906413,"Greenbrae","neighborhood"
38.5285384682864,-121.460491100638,"Fruitridge Park","neighborhood"
38.6675626304109,-121.218365024276,"Madison Oaks","neighborhood"
38.6961660885498,-121.267052776835,"Copperwood","neighborhood"
38.5371909811402,-121.451996895565,"Arnold","neighborhood"
38.5591928263502,-121.364993166364,"Cypress Meadows","neighborhood"
40.5674572988952,-122.352739157761,"Reservoir","neighborhood"
33.811267584157,-116.535553147245,"Tahquitz River Estates","neighborhood"
33.1963258740894,-117.283565191814,"Tri-City","neighborhood"
37.9340852515742,-122.359321839341,"Iron Triangle","neighborhood"
37.9283456218572,-122.350826148764,"Coronado","neighborhood"
33.7040239223513,-117.984011013393,"Newland","neighborhood"
37.7414884122595,-122.171142514255,"North Stonehurst","neighborhood"
37.766588449041,-122.173232332382,"Eastmont","neighborhood"
38.5636824785842,-121.765109534509,"Dos Pinos","neighborhood"
38.5547080570189,-121.769742076368,"Evergreen","neighborhood"
37.707852563273,-121.7323088835,"Springtown","neighborhood"
37.9220568470924,-122.331030098874,"Laurel Park","neighborhood"
37.9167539909298,-122.322086551156,"Park View","neighborhood"
34.0701283473641,-117.475910869338,"Southwest Industrial Park","neighborhood"
34.2814762372741,-119.290196829203,"Downtown Ventura","neighborhood"
34.1092698297873,-117.299454607613,"Feldheym","neighborhood"
33.6830684467213,-117.990873388473,"Garfield","neighborhood"
33.8930139164968,-117.492220245293,"La Sierra South","neighborhood"
37.9136565876357,-121.303258730256,"Weston Ranch","neighborhood"
37.7686217939684,-122.178546072512,"Bancroft Business","neighborhood"
37.7631957834857,-122.184588377435,"Hegenberger","neighborhood"
37.8762284667495,-122.26218012368,"Northside","neighborhood"
37.3432925977303,-121.861157328132,"Bonita Park","neighborhood"
37.3188328949061,-121.886305730886,"Guadalupe Washington","neighborhood"
37.6882190174461,-122.138996408954,"Washington Manor - Bonaire","neighborhood"
37.9148827067932,-122.314958199828,"Richmond Annex","neighborhood"
32.7469661604033,-117.111336326347,"Cherokee Point","neighborhood"
33.6637159560423,-117.928072857551,"Mesa Verde","neighborhood"
37.8024968364834,-122.234340596959,"Lynn","neighborhood"
37.7920992431893,-122.230075749629,"Highland Terrace","neighborhood"
37.758378888846,-122.191078136907,"Coliseum","neighborhood"
37.7612130717959,-122.200202051311,"Lockwood Gardens","neighborhood"
37.7530785370323,-122.188521171226,"Fitchburg","neighborhood"
38.5229315535867,-121.483443030745,"Mangan Park","neighborhood"
33.7466851342744,-117.880785214389,"Flower Park","neighborhood"
33.7601493050527,-117.878325013967,"West Floral Park","neighborhood"
37.8404178236451,-122.259815345483,"Shafter","neighborhood"
37.7927597170766,-122.255153646806,"East Peralta","neighborhood"
37.7402126292548,-122.190307787925,"Coliseum Industrial","neighborhood"
37.7324283263317,-122.18450377867,"Brookfield Village","neighborhood"
37.8683400338383,-122.286761699008,"Poets Corner","neighborhood"
38.5433956667909,-121.447994086487,"West Tahoe Park","neighborhood"
37.4845926880961,-122.197054978097,"Friendly Acres","neighborhood"
38.5498873057859,-121.395416065911,"College/Glen","neighborhood"
38.5205690229177,-121.41717939672,"Avondale","neighborhood"
37.3666637697969,-121.842597013262,"Gramercy and Alexander","neighborhood"
40.5481992071731,-122.39753070209,"Country Heights","neighborhood"
40.611884694446,-122.285478764301,"Columbia","neighborhood"
34.1447380884771,-118.267700809543,"Moorpark","neighborhood"
38.4883011045742,-121.382422480522,"Florin Mobile Estates","neighborhood"
37.8481171849994,-122.28485825605,"Paradise Park","neighborhood"
37.7869581976016,-122.228847557811,"Meadow Brook","neighborhood"
37.7841618048315,-122.230346564229,"Oak Tree","neighborhood"
37.7288741387727,-122.17617913491,"Sobrante Park","neighborhood"
37.7335918333622,-122.173574212465,"South Stonehurst","neighborhood"
37.7438699154718,-122.182217951755,"Elmhurst Park","neighborhood"
37.7495055528181,-122.186728771066,"Woodland","neighborhood"
37.8644497315383,-122.256145058754,"Elmwood","neighborhood"
37.6805749516796,-122.090038420086,"North Hayward","neighborhood"
32.7570054556898,-117.107704639398,"Kensington","neighborhood"
38.5944026107652,-121.494649121572,"Southern Pacific / Richards","neighborhood"
38.5642532807586,-121.416361670848,"Campus Commons","neighborhood"
38.579702562559,-121.405647167983,"Northrop Estates","neighborhood"
38.5833345776734,-121.40381537147,"Timberlake Condominiums","neighborhood"
38.586030330551,-121.408253154141,"Bella Terrace","neighborhood"
38.6285893550136,-121.39638239603,"Almond Woods","neighborhood"
38.6179206758514,-121.43281908385,"Cannon Industrial Park","neighborhood"
37.7957853225331,-122.222756490913,"Reservoir Hills","neighborhood"
37.7385541928089,-122.375924055626,"India Basin","neighborhood"
38.6718998670791,-121.377232515624,"Mission Rancho","neighborhood"
38.6911715399712,-121.367104652364,"Larchmont Village","neighborhood"
35.3052121032416,-119.06070597497,"The Seasons","neighborhood"
38.6514261514636,-121.504892988598,"Village 5","neighborhood"
38.686021809247,-121.302588547168,"Crosswoods","neighborhood"
38.7374988458221,-121.269709538594,"Sierra Gardens","neighborhood"
38.7034716789734,-121.17614751491,"Hannaford Cross","neighborhood"
33.6407703531094,-117.722806649717,"Irvine Industrial Complex-East","neighborhood"
34.1638219755578,-119.17234472084,"Blackstock South","neighborhood"
33.7087956404549,-117.755984951444,"The Groves","neighborhood"
37.3444126392899,-121.88666178748,"Horace Mann and SJSU","neighborhood"
37.3391130378051,-121.890631415433,"St James Park","neighborhood"
37.3483499726624,-121.87837551625,"Julian St James","neighborhood"
37.3546070455865,-121.871272782373,"Wooster - 26th","neighborhood"
37.3405850189251,-121.866711622819,"Olinder-Brookwood Terrace","neighborhood"
37.335436853602,-121.8611267792,"Olinder-McKinley","neighborhood"
33.1038893970701,-117.068905105732,"Kit Carson","neighborhood"
33.1178793525592,-117.080490557003,"South Boulevard","neighborhood"
37.3600447645862,-121.89784580509,"Hyde Park","neighborhood"
37.3590042093982,-121.883469422499,"Northside-Empire Gardens","neighborhood"
33.143369028752,-117.04110165269,"East Grove","neighborhood"
37.3628023525383,-121.820290689619,"East Hills and White","neighborhood"
37.297245133188,-121.834511148373,"Lone Bluff","neighborhood"
37.3651890175334,-121.908955290269,"Rosemary","neighborhood"
37.3177922636654,-121.826292749037,"Alvin - Burdette","neighborhood"
37.3256615349005,-121.869925974747,"Spartan Keyes","neighborhood"
40.7989935231335,-124.155479892723,"Greenside Park","neighborhood"
38.6784597139565,-121.157826560162,"Natomas Heights","neighborhood"
38.6678747103053,-121.158493207739,"Blue Ravine Oaks","neighborhood"
33.7308611858795,-117.896098740149,"New Horizons","neighborhood"
34.0444843239127,-117.502236844786,"Southridge Village","neighborhood"
34.1401316878436,-117.330468500317,"Delman","neighborhood"
34.1494292818435,-118.110320374796,"Mid Central","neighborhood"
40.6065284532229,-122.400952361741,"Quartz Hill","neighborhood"
34.1250645029332,-117.318221824627,"Mount Vernon","neighborhood"
34.1139275704446,-117.318276341648,"Alessandro","neighborhood"
34.1679218199037,-117.2828759611,"Wildwood Park","neighborhood"
34.1692360725034,-117.334599641524,"Kendall Hills","neighborhood"
40.573213774058,-122.305423662813,"Sports Complex","neighborhood"
40.6137100234275,-122.395047361255,"Lake Boulevard Subdivision","neighborhood"
36.9655058988567,-121.970554319599,"Opal Cliffs","neighborhood"
38.5590331654756,-121.764272925498,"Central Davis","neighborhood"
38.5507504319309,-121.766048051851,"Sycamore South","neighborhood"
34.0550552926355,-117.308645341303,"Cooley Ranch","neighborhood"
37.3345716070341,-121.85050960414,"Ferrari Pinoche","neighborhood"
36.0639941577058,-119.003799301469,"Corona Heights","neighborhood"
36.0514480477419,-119.143225539542,"Poplar","neighborhood"
37.3229464869476,-121.833731045226,"Lanai - Cunningham","neighborhood"
34.1720769858406,-119.182142725593,"Bryce Canyon North","neighborhood"
37.3299983284352,-121.845633890795,"Greater Santee","neighborhood"
37.3002977218198,-121.879120239836,"Almaden - Clara Filice","neighborhood"
32.9724382689112,-117.095082432399,"Rancho Peasquitos","neighborhood"
40.5098601208606,-122.387567330229,"Clear Creek","neighborhood"
40.5372663791371,-122.393255596707,"Branstetter","neighborhood"
40.5607650841261,-122.343614476271,"Enterprise","neighborhood"
40.5578993307233,-122.355225046338,"Shirley Subdivision","neighborhood"
40.5570139928277,-122.333722958961,"Quail Run Subdivision","neighborhood"
38.6912993285772,-121.24913772722,"Sunrise Knolls","neighborhood"
38.6913016582088,-121.233715005989,"Hickory Glen","neighborhood"
33.9331224636038,-117.284800679115,"Sycamore Canyon / Canyon Springs","neighborhood"
38.613268914701,-121.280602918185,"Cordova Terrace","neighborhood"
38.6751899465033,-121.203146741958,"River Oaks","neighborhood"
37.7872902263771,-122.450336816495,"Presidio Heights","neighborhood"
37.8324651091741,-122.265186290966,"Temescal","neighborhood"
37.8151858915794,-122.269908906965,"Northgate - Waverly","neighborhood"
38.6142035291286,-121.291588788256,"Larchmont Cordova","neighborhood"
38.569274422341,-121.31326919849,"Cordova Towne West","neighborhood"
37.7772434420859,-122.217988923724,"Saint Elizabeth","neighborhood"
37.8257882538852,-122.259801214673,"Mosswood","neighborhood"
37.6510576172436,-122.115272554524,"Mt. Eden","neighborhood"
37.9375378676289,-122.34454814646,"North & East","neighborhood"
37.7678531356007,-122.199280339124,"Seminary","neighborhood"
37.7712923298851,-122.197910718256,"Fairfax Business","neighborhood"
37.8080360697051,-122.299503168336,"Prescott","neighborhood"
35.4117566337162,-119.016754207098,"Mobile Town","neighborhood"
37.9336519445771,-122.372005813675,"Atchison Woods","neighborhood"
37.3232717362075,-120.498132456774,"Loughborough","neighborhood"
34.074977564594,-117.193340638102,"Northwest Redlands","neighborhood"
33.8195508791305,-116.53258527228,"Baristo","neighborhood"
34.0658440470016,-118.351695967699,"La Brea","neighborhood"
33.8318629919139,-118.313662846845,"Old Torrance","neighborhood"
38.6029013611466,-121.424328343565,"Swanston Estates","neighborhood"
38.5368685380079,-121.395209641951,"Belvedere","neighborhood"
37.2957690754011,-121.876873536966,"Evans","neighborhood"
34.2775227340601,-118.383828022059,"Lake View Terrace","neighborhood"
34.1146648100554,-117.334823180568,"Carvedale","neighborhood"
34.1682479519711,-117.300524657193,"Arrowhead Farms","neighborhood"
34.046454857858,-117.210362277327,"South Redlands","neighborhood"
37.264842176567,-121.811094828656,"Davis and Roeder","neighborhood"
37.3627359584956,-121.830441293171,"Florence - Nancy","neighborhood"
37.7826511957785,-122.401942025481,"Yerba Buena","neighborhood"
34.170742182077,-115.997420753139,"Wonder Valley","neighborhood"
34.1383820546583,-117.238508804211,"Barton","neighborhood"
34.1185179758239,-117.232383200515,"Lankershim","neighborhood"
34.0995453751684,-117.26533716596,"San Bernardino International Airport","neighborhood"
34.0778810041505,-117.269467886021,"Valley View","neighborhood"
34.0965017763094,-117.310769922666,"Lytle Creek","neighborhood"
33.9787707264957,-117.71070966695,"Los Serranos","neighborhood"
34.01601274453,-117.591504962058,"Ontario Ranch","neighborhood"
33.750327715227,-117.162955964083,"Romoland","neighborhood"
33.7748211894862,-117.231615032895,"South Perris","neighborhood"
37.6214314231779,-120.992734639652,"Shackelford","neighborhood"
33.6768111522395,-117.80423369494,"Woodbridge","neighborhood"
33.7246684863194,-117.787051635631,"Lower Peters Canyon","neighborhood"
33.6953770197975,-117.769842605511,"Northwood","neighborhood"
33.6895828665508,-117.739167588295,"Great Park","neighborhood"
33.7370111969978,-117.762829683509,"Orchard Hills","neighborhood"
33.6765992617058,-117.770997302228,"Oak Creek","neighborhood"
33.8105103142586,-117.88019056008,"Platinum Triangle","neighborhood"
33.8160654868326,-117.965194157242,"West Anaheim","neighborhood"
40.420612797122,-120.613255926349,"Susanville","dac_place"
39.205793651222,-122.012432644725,"Colusa","dac_place"
37.9765193666096,-121.310931427352,"Stockton","dac_place"
34.5352061081981,-117.210910622808,"Apple Valley","dac_place"
34.141599323104,-117.294390011437,"San Bernardino","dac_place"
34.397563727679,-117.314692258255,"Hesperia","dac_place"
34.3544907492207,-119.065539622326,"Santa Paula","dac_place"
40.5697665811848,-122.365038948495,"Redding","dac_place"
40.6789741082964,-122.37751780234,"Shasta Lake","dac_place"
34.5277304437857,-117.353631813071,"Victorville","dac_place"
33.6218521093988,-114.619530664965,"Blythe","dac_place"
33.7346278732552,-116.234608422502,"Indio","dac_place"
35.1943671537833,-118.83058113145,"Arvin","dac_place"
35.1276321516612,-118.474381129358,"Tehachapi","dac_place"
36.2040364372001,-120.09620193842,"Huron","dac_place"
40.173472273093,-122.241280926778,"Red Bluff","dac_place"
41.964391554001,-121.920564087437,"Dorris","dac_place"
41.320697670767,-122.315053040637,"Mount Shasta","dac_place"
39.1462740956202,-123.210466791516,"Ukiah","dac_place"
39.0391980378129,-122.921808562736,"Lakeport","dac_place"
32.5691195849168,-117.1182826199,"Imperial Beach","dac_place"
35.766162858311,-119.263541614098,"Delano","dac_place"
35.6781340240423,-119.24140260553,"McFarland","dac_place"
35.0515728464132,-119.405809190092,"Maricopa","dac_place"
36.6275806147614,-121.858948221894,"Sand City","dac_place"
39.0938051691946,-120.953235018364,"Colfax","dac_place"
40.4496682013476,-122.295041637276,"Anderson","dac_place"
41.7292609215683,-122.631161862498,"Yreka","dac_place"
35.4794232037119,-119.201306584552,"Shafter","dac_place"
35.5937877969933,-119.367114452987,"Wasco","dac_place"
37.9628665908214,-122.342595225201,"San Pablo","dac_place"
34.0450450469423,-117.249820569551,"Loma Linda","dac_place"
34.8164122578018,-114.618883662204,"Needles","dac_place"
39.4397343585386,-123.801543466533,"Fort Bragg","dac_place"
36.7248624904022,-120.062441590358,"Kerman","dac_place"
32.8016773378248,-116.960482108722,"El Cajon","dac_place"
36.2163677648127,-121.132893740615,"King City","dac_place"
36.412235468865,-119.100093872137,"Woodlake","dac_place"
34.1478240056218,-116.065974667378,"Twentynine Palms","dac_place"
34.1233570277189,-116.421566698701,"Yucca Valley","dac_place"
39.755816939992,-121.606330211755,"Paradise","dac_place"
36.08406793429,-119.561285963915,"Corcoran","dac_place"
34.5814008078454,-117.439703377933,"Adelanto","dac_place"
32.6654355586763,-117.098316789306,"National City","dac_place"
35.1577790317166,-117.872083994007,"California City","dac_place"
35.1267000455869,-119.424213810875,"Taft","dac_place"
34.2429009562724,-116.895277467677,"Big Bear Lake","dac_place"
38.3827055300691,-120.810612979395,"Sutter Creek","dac_place"
38.9392907717546,-119.982731706967,"South Lake Tahoe","dac_place"
36.7830265926428,-119.793854519767,"Fresno","dac_place"
38.9589457151333,-122.63309119764,"Clearlake","dac_place"
38.0706944311531,-120.550150157452,"Angels","dac_place"
41.4897636222955,-120.551566104545,"Alturas","dac_place"
39.135718773915,-121.638353165297,"Yuba City","dac_place"
38.1617168067022,-121.605272140529,"Isleton","dac_place"
34.960859477869,-120.57336554264,"Guadalupe","dac_place"
36.5453297429361,-119.398711474628,"Dinuba","dac_place"
36.2940779195501,-119.145965743963,"Exeter","dac_place"
36.3050061990018,-119.208316137003,"Farmersville","dac_place"
36.2081966151816,-119.089715610585,"Lindsay","dac_place"
39.3622339773172,-121.69709303218,"Gridley","dac_place"
33.9663260482356,-118.155030012243,"Bell Gardens","dac_place"
33.996296632051,-118.151894154895,"Commerce","dac_place"
33.9631348655077,-118.183139500491,"Cudahy","dac_place"
34.0739245503094,-118.029094742444,"El Monte","dac_place"
34.6617990360341,-120.471398442744,"Lompoc","dac_place"
32.9783601624468,-115.528681858137,"Brawley","dac_place"
33.8303440354683,-118.072836393079,"Hawaiian Gardens","dac_place"
39.2237754926786,-121.052175178563,"Grass Valley","dac_place"
32.6849367277855,-115.494367731864,"Calexico","dac_place"
32.7865141921763,-115.559520287682,"El Centro","dac_place"
32.8129370562593,-115.378079699671,"Holtville","dac_place"
33.0389269593676,-115.622325257707,"Westmorland","dac_place"
33.9885522730864,-118.187720174683,"Maywood","dac_place"
35.2669063405062,-120.669028438293,"San Luis Obispo","dac_place"
36.1421647841876,-120.32440300328,"Coalinga","dac_place"
36.8534107302968,-120.45359972859,"Firebaugh","dac_place"
36.6243826843464,-119.673757491902,"Fowler","dac_place"
38.4190000302923,-120.823272870661,"Amador City","dac_place"
38.3484909802284,-120.772834785839,"Jackson","dac_place"
36.755533412256,-120.37761370134,"Mendota","dac_place"
36.621150370559,-119.318761402718,"Orange Cove","dac_place"
36.6086976247297,-119.543378795976,"Parlier","dac_place"
36.5987728310579,-119.447054470593,"Reedley","dac_place"
36.6989739126682,-119.557498530351,"Sanger","dac_place"
36.5715545546459,-119.614282054764,"Selma","dac_place"
36.9206630368345,-121.770730713149,"Watsonville","dac_place"
34.2886573611218,-118.436254522703,"San Fernando","dac_place"
33.9146729033202,-118.347701596579,"Hawthorne","dac_place"
33.9565800560064,-118.344456538272,"Inglewood","dac_place"
34.0018993024505,-118.210585607097,"Vernon","dac_place"
33.9239639415362,-118.201668267488,"Lynwood","dac_place"
41.2316322604474,-122.271509513897,"Dunsmuir","dac_place"
41.4582049782385,-122.894493930383,"Etna","dac_place"
41.6084575601206,-122.841078664011,"Fort Jones","dac_place"
41.7275485729422,-122.530334559835,"Montague","dac_place"
41.4127643269636,-122.38163621804,"Weed","dac_place"
33.8976355579107,-118.165130095261,"Paramount","dac_place"
39.1517838023258,-121.583504569351,"Marysville","dac_place"
34.8660521569882,-117.047117775299,"Barstow","dac_place"
34.0537648241569,-117.325449904843,"Colton","dac_place"
41.953299122923,-121.475234283835,"Tulelake","dac_place"
38.912318458273,-123.695607217104,"Point Arena","dac_place"
39.4046392381099,-123.34938811808,"Willits","dac_place"
37.5952451502431,-120.961949132431,"Ceres","dac_place"
39.278808481504,-121.662451914242,"Live Oak","dac_place"
36.9854283849179,-120.633857355357,"Dos Palos","dac_place"
37.2545183767433,-120.994882253259,"Gustine","dac_place"
37.3874936868125,-120.724882829753,"Livingston","dac_place"
39.8241458024454,-120.473262708647,"Portola","dac_place"
39.9282066243143,-122.182020281939,"Corning","dac_place"
40.0217813356614,-122.126914293597,"Tehama","dac_place"
33.7340722524008,-116.996865410133,"Hemet","dac_place"
33.8362009628059,-116.464244265267,"Cathedral City","dac_place"
33.7970069651767,-116.991550899743,"San Jacinto","dac_place"
34.0584873511186,-117.762621026404,"Pomona","dac_place"
34.0493458501339,-118.048330741081,"South El Monte","dac_place"
37.5052897265936,-120.858769831962,"Turlock","dac_place"
34.693444983348,-118.175321504505,"Lancaster","dac_place"
34.0688528230043,-118.082322957565,"Rosemead","dac_place"
34.0154481580298,-118.110809092393,"Montebello","dac_place"
33.8929674674301,-118.227517309997,"Compton","dac_place"
33.9800799772415,-118.179756524318,"Bell","dac_place"
33.9799991880047,-118.216694671022,"Huntington Park","dac_place"
33.9447368423293,-118.192559984218,"South Gate","dac_place"
39.7578146227219,-121.81620947049,"Chico","dac_place"
39.4999719811308,-121.563349204667,"Oroville","dac_place"
41.7717152680629,-124.190815004848,"Crescent City","dac_place"
36.962992819861,-120.077841212227,"Madera","dac_place"
37.6428676068793,-120.755344159116,"Waterford","dac_place"
37.6375227257709,-121.002785994234,"Modesto","dac_place"
40.8813567594866,-123.992888272973,"Blue Lake","dac_place"
40.5861601165258,-124.14197177421,"Fortuna","dac_place"
40.5023674127252,-124.110535059219,"Rio Dell","dac_place"
40.5781081790061,-124.261252440972,"Ferndale","dac_place"
40.8615403717681,-124.075763274503,"Arcata","dac_place"
40.7942727544901,-124.156453373967,"Eureka","dac_place"
33.9460430098349,-116.899247861973,"Banning","dac_place"
37.9818937590864,-120.382820572379,"Sonora","dac_place"
37.1095006264139,-120.234963550587,"Chowchilla","dac_place"
33.9873459414146,-117.054223866054,"Calimesa","dac_place"
33.6905503271567,-116.143061051715,"Coachella","dac_place"
39.2606700609009,-121.023068229548,"Nevada City","dac_place"
36.0644308458323,-119.033732241823,"Porterville","dac_place"
36.1996076732517,-119.339992872794,"Tulare","dac_place"
37.352904344014,-120.595903415661,"Atwater","dac_place"
37.3057264147451,-120.47791144056,"Merced","dac_place"
33.955046248099,-116.543032353273,"Desert Hot Springs","dac_place"
33.801731785804,-116.538208889153,"Palm Springs","dac_place"
38.7307883272967,-120.797880631779,"Placerville","dac_place"
39.7460797948791,-122.185482708179,"Orland","dac_place"
39.5149094562979,-122.199490392258,"Willows","dac_place"
36.6055737940373,-120.189933819128,"San Joaquin","dac_place"
36.0311215838224,-120.11617307902,"Avenal","dac_place"
33.6099291949732,-117.729888091114,"Laguna Woods","dac_place"
33.1493357763018,-115.505612240845,"Calipatria","dac_place"
41.1947763898463,-120.950202691871,"Adin","dac_place"
37.6338883716442,-120.972018680239,"Airport","dac_place"
35.8498837538679,-119.389222407256,"Allensworth","dac_place"
35.8890422482937,-119.485821425628,"Alpaugh","dac_place"
38.7793519660036,-119.807793279727,"Alpine Village","dac_place"
38.8126585585111,-123.570279783413,"Anchor Bay","dac_place"
33.5678527470779,-116.696637858288,"Anza","dac_place"
38.6017272713516,-121.384503268037,"Arden-Arcade","dac_place"
36.3166122809255,-119.70539254574,"Armona","dac_place"
38.2464593231378,-120.347870466117,"Arnold","dac_place"
39.6331854694714,-122.189770640593,"Artois","dac_place"
37.9796490684839,-121.262523718613,"August","dac_place"
35.27692376002,-116.071746672464,"Baker","dac_place"
39.3760963462791,-121.411667159072,"Bangor","dac_place"
40.7653400314165,-124.178619017508,"Bayview","dac_place"
39.1095714932153,-121.35427255253,"Beale AFB","dac_place"
40.0602733900801,-123.765398268938,"Benbow","dac_place"
37.8189295424013,-118.4844863487,"Benton","dac_place"
35.3464437294136,-119.029827393334,"Benton Park","dac_place"
39.6313635445119,-121.405239817033,"Berry Creek","dac_place"
41.7524960145718,-124.159404071932,"Bertsch-Oceanview","dac_place"
38.0288842187743,-121.640381065713,"Bethel Island","dac_place"
41.1332583244315,-121.129484916867,"Bieber","dac_place"
34.2536336742207,-116.790326415407,"Big Bear City","dac_place"
41.0108402618193,-121.924028039338,"Big Bend","dac_place"
41.1594318538479,-124.129760056761,"Big Lagoon","dac_place"
37.1655236741384,-118.29515234933,"Big Pine","dac_place"
34.1393081112444,-114.36055117664,"Big River","dac_place"
36.7999430917409,-120.021050166199,"Biola","dac_place"
34.0600765682632,-117.401253637272,"Bloomington","dac_place"
34.175950735446,-114.264064861284,"Bluewater","dac_place"
35.5764583355265,-118.47644620625,"Bodfish","dac_place"
33.3556147660313,-115.726913335915,"Bombay Beach","dac_place"
39.0114799738682,-123.374057085109,"Boonville","dac_place"
37.467353205081,-119.885275850352,"Bootjack","dac_place"
35.0161210197805,-117.666116235541,"Boron","dac_place"
36.6946375997321,-121.674524453331,"Boronda","dac_place"
32.8189049634687,-116.947932569542,"Bostonia","dac_place"
38.3126378564726,-122.488751787895,"Boyes Hot Springs","dac_place"
37.6020827632036,-121.004392990651,"Bret Harte","dac_place"
38.4548026020867,-120.532347376732,"Buckhorn","dac_place"
38.2974922494136,-120.917415486384,"Buena Vista","dac_place"
40.8846714847162,-121.669090799903,"Burney","dac_place"
40.8110332555671,-123.508215826453,"Burnt Ranch","dac_place"
35.4092320970557,-119.440680205048,"Buttonwillow","dac_place"
37.6197857977852,-120.981421118612,"Bystrom","dac_place"
33.9127273144736,-116.782839590161,"Cabazon","dac_place"
41.4116570349156,-120.660463083638,"California Pines","dac_place"
36.7135748774443,-119.760766226718,"Calwa","dac_place"
38.2442235327001,-120.953928525236,"Camanche North Shore","dac_place"
32.6394308059509,-116.474443075523,"Campo","dac_place"
33.3117240774239,-117.324739538974,"Camp Pendleton Mainside","dac_place"
33.2328792016928,-117.393207128939,"Camp Pendleton South","dac_place"
36.5000504195395,-120.316374080326,"Cantua Creek","dac_place"
36.5399118645699,-119.845039755621,"Caruthers","dac_place"
35.3432353512549,-118.99872336947,"Casa Loma","dac_place"
41.155174321702,-122.303128007126,"Castella","dac_place"
37.4307962069752,-120.09946378087,"Catheys Valley","dac_place"
38.0660336961912,-120.27374865584,"Cedar Ridge","dac_place"
41.5280497486927,-120.174796270578,"Cedarville","dac_place"
37.5105093348138,-118.375082679607,"Chalfant","dac_place"
35.4695716037112,-119.261537996044,"Cherokee Strip","dac_place"
40.301708647012,-121.23389460773,"Chester","dac_place"
36.5711178645506,-121.510308241535,"Chualar","dac_place"
40.3022752769815,-121.053133555664,"Clear Creek","dac_place"
39.0218362601398,-122.659300014831,"Clearlake Oaks","dac_place"
39.7486869446375,-120.572381437764,"Clio","dac_place"
39.5324291506526,-121.16656494282,"Clipper Mills","dac_place"
41.0802670243875,-122.713615285304,"Coffee Creek","dac_place"
38.746444976684,-120.873819643065,"Cold Springs","dac_place"
38.0333356396153,-120.409667227685,"Columbia","dac_place"
39.2651395846073,-123.589728412689,"Comptche","dac_place"
39.7732949079934,-121.51958036709,"Concow","dac_place"
35.3464315803638,-118.985107413177,"Cottonwood","dac_place"
37.9687068267638,-121.340835689625,"Country Club","dac_place"
38.332915965573,-121.55703842186,"Courtland","dac_place"
39.8024745307679,-123.249883948673,"Covelo","dac_place"
37.3944479256567,-121.075179561941,"Crows Landing","dac_place"
36.5246692629002,-119.288841683757,"Cutler","dac_place"
37.0177836809934,-122.18789814841,"Davenport","dac_place"
36.6564691428962,-119.598147398277,"Del Rey","dac_place"
35.2440305252052,-119.60384445336,"Derby Acres","dac_place"
33.7378024319945,-115.366629660711,"Desert Center","dac_place"
33.9222937111101,-116.44010462995,"Desert Edge","dac_place"
33.7789483102737,-116.292955716125,"Desert Palms","dac_place"
38.6920444335114,-120.83908205426,"Diamond Springs","dac_place"
35.2491233155713,-118.844165946065,"Di Giorgio","dac_place"
37.3863933907675,-118.415285248812,"Dixon Lane-MeadowCreek","dac_place"
37.0468452240502,-120.639486501201,"Dos Palos Y","dac_place"
40.652865516183,-122.928276669027,"Douglas City","dac_place"
35.8927060554027,-119.047022034444,"Ducor","dac_place"
38.8926480596032,-121.97419925253,"Dunnigan","dac_place"
35.2159341233489,-119.3749990782,"Dustin Acres","dac_place"
39.208013210278,-120.834488670066,"Dutch Flat","dac_place"
35.8913606809427,-119.272103881015,"Earlimart","dac_place"
35.3831900823625,-118.974380817663,"East Bakersfield","dac_place"
33.7301303178244,-116.940990082621,"East Hemet","dac_place"
34.0326261481592,-118.169162171296,"East Los Angeles","dac_place"
35.3682775181489,-118.922474126562,"East Niles","dac_place"
36.5480739069552,-119.2598651624,"East Orosi","dac_place"
36.0581592357812,-118.974905179345,"East Porterville","dac_place"
39.9164394969197,-120.918948530606,"East Quincy","dac_place"
33.8948459108494,-118.195598007853,"East Rancho Dominguez","dac_place"
37.9774520265464,-120.341018937766,"East Sonora","dac_place"
35.2273009174611,-118.823264371707,"Edmundson Acres","dac_place"
38.352333765231,-121.907732299637,"Elmira","dac_place"
37.1323811565158,-120.49856369535,"El Nido","dac_place"
37.6736603972476,-119.787035133986,"El Portal","dac_place"
34.2452845765919,-119.156877478185,"El Rio","dac_place"
37.6430620706552,-120.907051747587,"Empire","dac_place"
40.7882985404803,-124.201434575136,"Fairhaven","dac_place"
37.0774717990242,-120.193674183543,"Fairmead","dac_place"
41.0068253192378,-121.440046146318,"Fall River Mills","dac_place"
33.9681655031484,-118.244679640685,"Florence-Graham","dac_place"
38.4832157942309,-121.404284968456,"Florin","dac_place"
39.928342832847,-122.445804276255,"Flournoy","dac_place"
38.6867378509977,-121.347490172013,"Foothill Farms","dac_place"
39.5300436104658,-121.268960144055,"Forbestown","dac_place"
35.1647409655169,-119.458412852024,"Ford City","dac_place"
41.8629979770025,-120.158908074093,"Fort Bidwell","dac_place"
35.2477086045149,-116.683425115307,"Fort Irwin","dac_place"
37.3275340909464,-120.532103061264,"Franklin","dac_place"
34.8118422803308,-118.954893517173,"Frazier Park","dac_place"
37.8802693994692,-121.280322814553,"French Camp","dac_place"
40.7165501849176,-122.631183089342,"French Gulch","dac_place"
36.9847393902371,-119.712953803612,"Friant","dac_place"
38.5326181427796,-121.455819779114,"Fruitridge Pocket","dac_place"
35.302258733709,-118.914307761814,"Fuller Acres","dac_place"
36.4276954632404,-116.874708321757,"Furnace Creek","dac_place"
40.1003451149109,-123.794830334524,"Garberville","dac_place"
37.963702494416,-121.229623615967,"Garden Acres","dac_place"
33.9178910904312,-116.479630388924,"Garnet","dac_place"
41.8428955174096,-123.973110942652,"Gasquet","dac_place"
41.5148810418285,-122.521660769376,"Gazelle","dac_place"
33.770628599616,-117.27719263913,"Good Hope","dac_place"
36.3492709988226,-119.420634144662,"Goshen","dac_place"
39.7572173223992,-120.648623814546,"Graeagle","dac_place"
37.5645820715462,-121.180063364213,"Grayson","dac_place"
37.7504593288045,-120.122793491649,"Greeley Hill","dac_place"
35.2695356159165,-119.00947500923,"Greenfield","dac_place"
39.9029729510624,-120.758995310811,"Greenhorn","dac_place"
40.1336103196449,-120.945347921138,"Greenville","dac_place"
41.6405898131467,-122.526026586715,"Grenada","dac_place"
39.074159629206,-121.898789932723,"Grimes","dac_place"
38.6357013188426,-120.535444109739,"Grizzly Flats","dac_place"
39.7426831474413,-122.010959187282,"Hamilton City","dac_place"
41.8103741778193,-123.38917759339,"Happy Camp","dac_place"
40.4661329970778,-122.420713644283,"Happy Valley","dac_place"
40.5610419194347,-123.129857924764,"Hayfork","dac_place"
32.7324990021316,-115.52941023365,"Heber","dac_place"
40.1417275556571,-120.13966928133,"Herlong","dac_place"
35.3789751498768,-118.957865846769,"Hillcrest","dac_place"
36.302836943862,-119.6370856143,"Home Garden","dac_place"
33.7458835981807,-117.113253584199,"Homeland","dac_place"
34.2730161276056,-116.414561508478,"Homestead Valley","dac_place"
38.3692965318756,-121.515501268031,"Hood","dac_place"
41.0802851174897,-123.697268372276,"Hoopa","dac_place"
38.9690597086262,-123.117291889693,"Hopland","dac_place"
41.9079591622439,-122.559635418026,"Hornbrook","dac_place"
40.557882162462,-124.08226215877,"Hydesville","dac_place"
36.8274474631475,-118.2132472974,"Independence","dac_place"
40.8132764243581,-124.080805021383,"Indianola","dac_place"
33.8410692794318,-116.248485110122,"Indio Hills","dac_place"
34.4126550173389,-119.861392411588,"Isla Vista","dac_place"
36.383444321189,-119.22010051404,"Ivanhoe","dac_place"
32.6277716633736,-116.182739357854,"Jacumba","dac_place"
37.9573727853248,-120.41099299773,"Jamestown","dac_place"
40.9211843228031,-121.629544003544,"Johnson Park","dac_place"
34.1236416568962,-116.312872990764,"Joshua Tree","dac_place"
40.7341354739137,-123.061810944555,"Junction City","dac_place"
39.5288096498601,-121.466271802864,"Kelly Ridge","dac_place"
38.9704736258461,-122.832774762628,"Kelseyville","dac_place"
37.9290467814662,-121.245796690691,"Kennedy","dac_place"
35.7533178871465,-118.432055711484,"Kernville","dac_place"
40.6134451027848,-122.460619321961,"Keswick","dac_place"
36.0089901549547,-119.962864411786,"Kettleman City","dac_place"
37.5573133113404,-120.911388361329,"Keyes","dac_place"
39.2449980993568,-120.020281781691,"Kings Beach","dac_place"
41.5442336854675,-124.024562131922,"Klamath","dac_place"
38.7979768589436,-121.717460595931,"Knights Landing","dac_place"
35.3972062017247,-118.989324857343,"La Cresta","dac_place"
37.6634607991944,-120.463160174301,"La Grange","dac_place"
37.659042491243,-120.332950807714,"Lake Don Pedro","dac_place"
40.9007557029661,-122.392411526489,"Lakehead","dac_place"
35.6377694992163,-118.481940422656,"Lake Isabella","dac_place"
33.6479494380474,-117.370606084795,"Lakeland Village","dac_place"
34.609671023699,-117.833922103505,"Lake Los Angeles","dac_place"
34.8225657839907,-119.002554472068,"Lake of the Woods","dac_place"
35.2659347151446,-118.915958444831,"Lamont","dac_place"
40.0721461354131,-122.157325769615,"Las Flores","dac_place"
36.4314148940926,-119.697608043494,"Laton","dac_place"
39.6715091003212,-123.49458857623,"Laytonville","dac_place"
34.8449650933285,-118.899198282753,"Lebec","dac_place"
37.2288197179622,-120.254015272722,"Le Grand","dac_place"
36.3808856406201,-119.028471225997,"Lemon Cove","dac_place"
38.5172366498968,-121.457292155631,"Lemon Hill","dac_place"
36.263281367472,-119.904849018416,"Lemoore Station","dac_place"
33.938072903122,-118.358552096194,"Lennox","dac_place"
34.8860613870723,-117.10778453477,"Lenwood","dac_place"
40.6969375072149,-122.822527269154,"Lewiston","dac_place"
39.1241453804632,-121.542182745057,"Linda","dac_place"
36.3088924800818,-119.222595743096,"Linnell Camp","dac_place"
40.3877074031832,-120.380719462523,"Litchfield","dac_place"
39.2702904761585,-123.781763634958,"Little River","dac_place"
34.5231804047594,-117.980855122616,"Littlerock","dac_place"
40.6408910331664,-124.222569737267,"Loleta","dac_place"
36.4804848879802,-119.444953013801,"London","dac_place"
36.577354655463,-118.077720762811,"Lone Pine","dac_place"
40.0270076202421,-122.09812756408,"Los Molinos","dac_place"
35.6254098664166,-119.678867789131,"Lost Hills","dac_place"
38.9118335008493,-122.608530227206,"Lower Lake","dac_place"
39.0697591847119,-122.77462828467,"Lucerne","dac_place"
34.4427048417801,-116.902103857385,"Lucerne Valley","dac_place"
34.249931300073,-117.504443433786,"Lytle Creek","dac_place"
38.6629027091351,-121.401668634588,"McClellan Park","dac_place"
35.8219894117682,-118.647850968922,"McClenney Tract","dac_place"
41.2540667655647,-122.1360844838,"McCloud","dac_place"
40.9487048286576,-124.085659465394,"McKinleyville","dac_place"
35.2980333249921,-119.624933513693,"McKittrick","dac_place"
38.6749932723297,-121.970266682819,"Madison","dac_place"
39.822854039201,-121.60786120625,"Magalia","dac_place"
36.6816070053779,-119.73179834781,"Malaga","dac_place"
38.9743899194077,-123.690974462041,"Manchester","dac_place"
40.8514237008242,-124.163068611603,"Manila","dac_place"
37.8711611547302,-122.513749204125,"Marin City","dac_place"
37.4912031478123,-119.972161472804,"Mariposa","dac_place"
36.1706507123777,-119.351620778343,"Matheny","dac_place"
39.2770836336953,-122.194689441764,"Maxwell","dac_place"
36.7693506447823,-119.76127472944,"Mayfair","dac_place"
33.7253200291004,-117.285129399285,"Meadowbrook","dac_place"
33.5767067601807,-116.064519871203,"Mecca","dac_place"
39.3111654969248,-123.794686686392,"Mendocino","dac_place"
34.0609302235544,-117.11083256146,"Mentone","dac_place"
39.1404438713086,-121.907913579319,"Meridian","dac_place"
33.5957049960727,-114.731614377246,"Mesa Verde","dac_place"
35.0635682968163,-118.972992370953,"Mettler","dac_place"
35.4689346708477,-119.268724775551,"Mexican Colony","dac_place"
33.7451258037328,-117.984849474647,"Midway City","dac_place"
40.375467455092,-121.569430044654,"Mineral","dac_place"
35.0138732292987,-118.189595506367,"Mojave","dac_place"
36.5656256776258,-119.740488036312,"Monmouth","dac_place"
36.4924251724368,-119.336133262839,"Monson","dac_place"
38.4683810680843,-123.01474688392,"Monte Rio","dac_place"
40.8414517301596,-121.921514810253,"Montgomery Creek","dac_place"
34.0723830252604,-116.562731750762,"Morongo Valley","dac_place"
40.7184619165001,-122.326237662037,"Mountain Gate","dac_place"
35.6411425069238,-118.404657794801,"Mountain Mesa","dac_place"
34.4975628516437,-117.3471849905,"Mountain View Acres","dac_place"
38.1371334432472,-120.44874189525,"Murphys","dac_place"
34.1551814418094,-117.347733773418,"Muscoy","dac_place"
40.7888030100227,-124.128617400878,"Myrtletown","dac_place"
34.9430619614646,-119.682030970533,"New Cuyama","dac_place"
41.8898319503397,-121.367455202348,"Newell","dac_place"
39.1266471642856,-122.852517820886,"Nice","dac_place"
33.2387128561167,-115.514451281987,"Niland","dac_place"
35.047342735947,-117.809362026668,"North Edwards","dac_place"
37.2305674400505,-119.519943875533,"North Fork","dac_place"
38.6713286017149,-121.372147685166,"North Highlands","dac_place"
39.0882778791424,-122.905302523535,"North Lakeport","dac_place"
33.515676197261,-115.90925095071,"North Shore","dac_place"
41.0966457492665,-121.181592534605,"Nubieber","dac_place"
37.3475165303919,-119.620242410871,"Oakhurst","dac_place"
33.5275435147401,-116.126136249509,"Oasis","dac_place"
35.4292680236863,-119.030588852662,"Oildale","dac_place"
36.2703668017531,-118.001515221753,"Olancha","dac_place"
35.3477560533797,-119.04693535765,"Old Stine","dac_place"
39.079468363905,-121.556673589692,"Olivehurst","dac_place"
40.4801624416523,-122.625728911126,"Ono","dac_place"
35.6838794859717,-118.210169317618,"Onyx","dac_place"
41.2909220633468,-124.069153098941,"Orick","dac_place"
36.5432762748195,-119.291431281845,"Orosi","dac_place"
36.9016558719467,-121.741717184306,"Pajaro","dac_place"
39.4312739708558,-121.522555477783,"Palermo","dac_place"
36.9464928242154,-120.021190394949,"Parksdale","dac_place"
38.4992984918756,-121.452025590089,"Parkway","dac_place"
36.9292757916219,-120.04820307689,"Parkwood","dac_place"
39.8832797315608,-122.545846894084,"Paskenta","dac_place"
36.3795264297955,-119.295616649913,"Patterson Tract","dac_place"
40.140729768816,-120.17813621168,"Patton Village","dac_place"
40.3408804150172,-121.91743487419,"Paynes Creek","dac_place"
39.1953023908723,-121.194166531148,"Penn Valley","dac_place"
38.2506573641035,-122.788854572589,"Petaluma Center","dac_place"
40.211740789443,-123.784466649901,"Phillipsville","dac_place"
39.0657621741181,-123.445076479345,"Philo","dac_place"
38.0075508958189,-120.308976723192,"Phoenix Lake","dac_place"
39.4278487626254,-120.99969374584,"Pike","dac_place"
38.4030469240534,-120.657104223422,"Pine Grove","dac_place"
40.7312924933678,-124.155110307596,"Pine Hills","dac_place"
34.8445812023138,-119.166889817798,"Pine Mountain Club","dac_place"
37.8598898965255,-120.184403149411,"Pine Mountain Lake","dac_place"
34.4437886919059,-117.621445686116,"Pion Hills","dac_place"
34.4063661115776,-118.80192994492,"Piru","dac_place"
35.9785513753418,-119.300332832602,"Pixley","dac_place"
36.1430325752145,-119.135352342821,"Plainview","dac_place"
37.2902073775197,-120.321644867941,"Planada","dac_place"
38.7574854996379,-120.592066736199,"Pollock Pines","dac_place"
36.0577217195533,-119.150193304778,"Poplar-Cotton Center","dac_place"
40.4159543119216,-123.231616257289,"Post Mountain","dac_place"
35.3635362395272,-118.965002760117,"Potomac Park","dac_place"
39.3190581117843,-123.11222444386,"Potter Valley","dac_place"
39.4016038726464,-122.019372585091,"Princeton","dac_place"
35.2653063000991,-119.032422244668,"Pumpkin Center","dac_place"
39.93102287876,-120.954899031772,"Quincy","dac_place"
39.4261200029991,-121.354202090585,"Rackerby","dac_place"
38.3245280921289,-120.516931591178,"Rail Road Flat","dac_place"
36.6032673740145,-119.909170978774,"Raisin City","dac_place"
40.0010522780259,-122.441912515827,"Rancho Tehama Reserve","dac_place"
35.3679616822775,-117.660638871512,"Randsburg","dac_place"
40.1208581052296,-123.822070386587,"Redway","dac_place"
39.2689380071442,-123.20234851523,"Redwood Valley","dac_place"
35.3050576715323,-118.997003942144,"Rexland Acres","dac_place"
39.973806446533,-122.173247211328,"Richfield","dac_place"
35.7966167663092,-119.106915557565,"Richgrove","dac_place"
33.5237926380112,-114.653003563146,"Ripley","dac_place"
36.4304072416594,-119.867192154517,"Riverdale","dac_place"
38.5454631656011,-120.742922249722,"River Pines","dac_place"
40.8005402550551,-121.937500222426,"Round Mountain","dac_place"
37.4069654320908,-118.58174838633,"Round Valley","dac_place"
37.6195184685458,-121.00838342778,"Rouse","dac_place"
33.5982959823289,-116.915381133037,"Sage","dac_place"
33.2994383704151,-115.960962652533,"Salton City","dac_place"
33.3758497915532,-116.011387338014,"Salton Sea Beach","dac_place"
40.8860679555473,-123.580725965129,"Salyer","dac_place"
40.8146146184165,-124.189228611285,"Samoa","dac_place"
38.1911379279734,-120.676308714292,"San Andreas","dac_place"
36.128354140476,-121.02174469077,"San Lucas","dac_place"
35.6182104437953,-121.137450348956,"San Simeon","dac_place"
40.4775008707331,-124.103194522786,"Scotia","dac_place"
35.7700551971836,-117.396685783277,"Searles Valley","dac_place"
32.7892723812036,-115.684301451141,"Seeley","dac_place"
36.4835383424976,-119.225880379869,"Seville","dac_place"
40.0389601522296,-124.055839509703,"Shelter Cove","dac_place"
38.9694868021697,-121.355199334578,"Sheridan","dac_place"
40.5034887182106,-121.859950863794,"Shingletown","dac_place"
39.6425979795248,-120.215402028387,"Sierra Brooks","dac_place"
38.0765681701932,-120.162922144342,"Sierra Village","dac_place"
34.86217767185,-120.294238459674,"Sisquoc","dac_place"
33.8912450216017,-116.355061904744,"Sky Valley","dac_place"
39.2052780287923,-121.292929907976,"Smartsville","dac_place"
37.5216498165461,-120.43846349582,"Snelling","dac_place"
36.9707064337819,-120.646743582363,"South Dos Palos","dac_place"
39.4766821583805,-121.543949424524,"South Oroville","dac_place"
35.12931336037,-119.457512720316,"South Taft","dac_place"
40.6556697422176,-120.7862731334,"Spaulding","dac_place"
39.0776816035006,-122.596777822221,"Spring Valley","dac_place"
37.4252033110239,-122.167416195185,"Stanford","dac_place"
39.9063549278244,-121.536158014105,"Stirling City","dac_place"
36.146121583506,-119.064353854075,"Strathmore","dac_place"
36.5455158834589,-119.337748481919,"Sultana","dac_place"
34.559622115533,-117.955868275527,"Sun Village","dac_place"
35.1337550609309,-119.471152570134,"Taft Heights","dac_place"
37.9140202488336,-121.283127195324,"Taft Mosswood","dac_place"
39.1313936424386,-123.164775580191,"Talmage","dac_place"
38.7618641630794,-122.154709253287,"Tancred","dac_place"
36.7940504540758,-119.701210198406,"Tarpey Village","dac_place"
35.835189805422,-116.207563658465,"Tecopa","dac_place"
38.2577600600962,-122.498210987306,"Temelec","dac_place"
38.1152616043152,-121.489571304614,"Terminous","dac_place"
35.9600163140697,-119.038540529921,"Terra Bella","dac_place"
35.9288777350725,-119.278345192766,"Teviston","dac_place"
33.6261981840584,-116.130847664787,"Thermal","dac_place"
39.4908211136819,-121.615042816111,"Thermalito","dac_place"
38.230911262524,-121.424896899325,"Thornton","dac_place"
33.8149764882305,-116.354484353305,"Thousand Palms","dac_place"
36.0572383011869,-119.313537253512,"Tipton","dac_place"
36.2473870517983,-119.090364796432,"Tonyville","dac_place"
36.4541165080751,-119.483742184832,"Traver","dac_place"
40.984072184285,-122.708340059571,"Trinity Center","dac_place"
40.8789211421282,-123.513220652347,"Trinity Village","dac_place"
37.9614989607316,-120.242781599698,"Tuolumne City","dac_place"
38.0384028577644,-120.233958292024,"Twain Harte","dac_place"
38.5377088909975,-121.757912750551,"University of California-Davis","dac_place"
38.0836132711264,-120.465218073302,"Vallecito","dac_place"
33.7435896245358,-116.88709486048,"Valle Vista","dac_place"
33.6226552511536,-116.212590998068,"Vista Santa Rosa","dac_place"
37.0875071539076,-120.923472812694,"Volta","dac_place"
38.5185092771967,-119.473064041324,"Walker","dac_place"
33.9682375105402,-118.221959991796,"Walnut Park","dac_place"
33.7066857785504,-117.334265364381,"Warm Springs","dac_place"
39.3591632530845,-120.790508920782,"Washington","dac_place"
40.7406691347424,-122.929032883623,"Weaverville","dac_place"
35.2368597591146,-118.912360767583,"Weedpatch","dac_place"
41.1968896216415,-123.693874806456,"Weitchpec","dac_place"
35.6430764670587,-118.31024068839,"Weldon","dac_place"
33.9234578539511,-118.303313302403,"West Athens","dac_place"
36.3491876119055,-119.4573870112,"West Goshen","dac_place"
37.6178086497288,-121.034567774453,"West Modesto","dac_place"
33.9416869892536,-118.301845527301,"Westmont","dac_place"
40.3049088404615,-121.003631359127,"Westwood","dac_place"
33.9355925571045,-116.687223950839,"Whitewater","dac_place"
33.9208705253304,-118.235556230233,"Willowbrook","dac_place"
33.7146025430731,-117.077454780389,"Winchester","dac_place"
32.7371882494905,-114.637809304351,"Winterhaven","dac_place"
37.3854322763882,-120.617377608442,"Winton","dac_place"
35.7127179835639,-118.473151748533,"Wofford Heights","dac_place"
36.092685345292,-119.201238007525,"Woodville","dac_place"
36.0831556679524,-119.147935237899,"Woodville Farm Labor Camp","dac_place"
34.3495131281155,-117.629970856175,"Wrightwood","dac_place"
39.7007157271986,-121.514702756383,"Yankee Hill","dac_place"
34.9073204076344,-116.823233195819,"Yermo","dac_place"
36.4856891975736,-119.25570184254,"Yettem","dac_place"
37.7407573721586,-119.577888359032,"Yosemite Valley","dac_place"
